name|latitude|longitude|management|phone_number|adress|service|location|operate_time(summer)|operate_time(winter)|holiday|english|japanese|chinese|desc|page
대구관광정보센터|35.85086541|128.55766979999999|대구광역시관광협회|053-627-8900|대구광역시 달서구 공원순환로 46(두류동)|외국어 안내, 숙박안내, 쇼핑안내|두류공원 내(야외음악당 옆)|9:00 ~ 18:00|9:00 ~ 18:00|연중무휴|Y|Y|Y|국내,외 관광정보 제공 및 대구.경북 지역의 관광자원을 홍보|http://www.daegutravel.or.kr
이월드 관광안내소|35.85485186|128.56481680000002|대구광역시관광협회|053-621-6046|대구광역시 달서구 두류공원로 200|외국어 안내, 숙박안내, 쇼핑안내|이월드 정문동우측|10:00 ~ 19:00|10:00 ~ 19:00|연중무휴|Y|Y|Y|각종 축제의 중심인 두류공원 인근에 위치하고 있어 대구를 찾는 내외국인에게 대구의 관광안내 및 관광정보를 제공|http://www.daegutravel.or.kr
계산예가관광안내소|35.8672357|128.5878192|대구광역시 중구청|053-661-3323|대구광역시 중구 계산동2가 서성로 6-1|인터넷검색,음수,구급함|이상화, 서상돈 고택|9:00 ~ 18:00|9:00 ~ 17:30|설,추석 당일|Y|Y|Y|이상화,서상돈고택 앞 관광안내소|http://www.jung.daegu.kr/new/culture/pages/tour/page.html?mc=0011
쌈지공원관광안내소|35.86771973|128.58674150000002|대구광역시 중구청|053-661-3327|대구광역시 중구 국채보상로102길 66|인터넷검색,음수,구급함|계산성당 건너편|10:00 ~ 18:00|10:00 ~ 17:30|설,추석 당일|Y|Y|Y|계산성당건너편 3.1만세운동계단아래 관광안내소|http://www.jung.daegu.kr/new/culture/pages/tour/page.html?mc=0011
김광석길관광안내소|35.86170453|128.60751090000002|대구광역시 중구청|053-661-3328|대구광역시 중구 달구벌대로450길 6-4|인터넷검색,음수,구급함|김광석다시그리기길 초입|10:00 ~ 18:00|10:00 ~ 17:30|설,추석 당일|Y|Y|Y|김광석길 관광안내소|http://www.jung.daegu.kr/new/culture/pages/tour/page.html?mc=0011
대구역 관광안내소|35.875894200000005|128.5961298|대구광역시청|053-660-1432|대구광역시 북구 태평로 161|-|대구역 광장|9:00 ~ 18:00|9:00 ~ 17:00|연중무휴|Y|Y|N|대구의 관문인 대구역 광장에 위치해 있으며 대구를 찾는 내외국인에게 대구의 관광안내 및 관광정보를 제공|-
엑스코 관광안내소|35.9070695|128.61308359999998|문화체육관광부|053-601-5237|대구광역시 북구 엑스코로 10|-|엑스코 전시장 1층|9:00 ~ 18:00|9:00 ~ 18:00|연중무휴|Y|N|Y|엑스코의 각종 행사에 참석하는 내외국인에게 대구의 관광안내 및 관광정보를 제공|-
대구구암동고분군 팔거산성 탐방안내소|35.931829|128.56746299999998|대구광역시 북구청|053-325-2344|-|-|운암지수변공원 內|10:00 ~ 17:00|10:00 ~ 17:00|설.추석명절, 매주월요일|N|N|N|구암동고분군º팔거산성에 대한 역사적 가치와 정보를 문화유산탐방해설사를 통하여 제공|-
대구역 관광안내소|35.875894200000005|128.5961298|대구광역시관광협회|053-660-1432|대구광역시 북구 태평로 161|외국어 안내|대구역 광장|9:00 ~ 18:00|9:00 ~ 18:00|연중무휴|Y|Y| |대구역 관광안내소는 대구의 관문인 대구역 광장에 위치해 있으며 대구를 찾는 내외국인에게 대구의 관광안내 및 관광정보를 제공하고 있다.|http://www.daegutravel.or.kr/
대구공항 관광안내소|35.89910868|128.6392615|대구광역시관광협회|053-984-1994|대구광역시 동구 공항로 221|통역 서비스|대구국제공항 청사내|9:00 ~ 19:00|9:00 ~ 19:00|연중무휴|Y|Y|Y|대구공항 관광안내소는 대구국제공항 청사 1층에 위치하고 있으며, 대구·경북의 다양한 관광정보를 국내외 관광객에게 제공한다.|http://www.daegutravel.or.kr/
동성로 관광안내소|35.866942|128.59371869999998|대구광역시관광협회|053-252-2696|대구광역시 중구 중앙대로 382|통역 서비스, 숙박안내, 쇼핑안내, 교통안내|(구)중앙파출소|10:00 ~ 19:00|10:00 ~ 19:00|연중무휴|Y|Y|Y|시내중심가에 위치한 동성로 관광안내소는 2020년 12월 개소하여 도심 관광객들에게 관광·쇼핑·교통·숙박 정보와 외국어 통역서비스를 제공하고 있다.|http://www.daegutravel.or.kr/
대구관광정보센터|35.85086313|128.5576665|대구광역시관광협회|053-627-8986|대구광역시 달서구 공원순환로 46|외국어 안내, 숙박안내, 쇼핑안내, 특산품 판매|두류공원 내|9:00 ~ 18:00|9:00 ~ 18:00|연중무휴|Y|Y|Y|대구관광정보센터는 시민에게 유익한 국내외 관광정보를 제공하고, 대구·경북 지역의 관광 자원을 세계에 홍보할 목적으로 건립되었다. 연중무휴로 운영되며, 영어, 일어, 중국어 통역 안내원이 상시 배치되어 대구를 찾아온 내, 외국인들에게 교통편, 숙박시설 등 다양한 관광 정보를 제공한다.|http://www.daegutour.or.kr/
이월드 관광안내소|35.85485417|128.5648201|대구광역시관광협회|053-621-6046|대구광역시 달서구 두류공원로 200|통역 서비스|이월드 정문동 우측|10:00 ~ 19:00|10:00 ~ 19:00|연중무휴|Y| |Y|이월드 관광안내소는 이월드 정문 우측에 위치하고 있다. 각종 축제의 중심인 두류공원 인근에 위치하고 있어 대구를 찾는 내외국인에게 대구의 관광안내 및 관광정보를 제공하고 있다.|http://www.daegutravel.or.kr/
엑스코 관광안내소|35.9070695|128.61308359999998|대구광역시관광협회|053-601-5237|대구광역시 북구 엑스코로 10|통역 서비스|대구전시컨벤션센터(신관 1층)|9:00 ~ 18:00|9:00 ~ 18:00|연중무휴|Y| | |엑스코의 각종 행사에 참석하는 내외국인에게 대구의 관광안내 및 관광정보를 제공하고 있다.|http://www.daegutravel.or.kr/
동대구역안내소|35.87943775|128.628719|대구광역시 관광협회|053-939-0080|대구광역시 동구 동대구로 550(신암동)|-|동대구역 광장|9:00 ~ 19:00|9:00 ~ 19:00|연중무휴|Y|Y|Y|동대구역관련 및 시티투어 근교투어 탑승장소 정보제공|http://www.daegutravel.or.kr, http://tour.daegu.go.kr
대구공항안내소|35.89910868|128.6392615|대구광역시 관광협회|053-984-1994|대구광역시 동구 공항로 221(지저동)|-|대구국제공항 1층|9:00 ~ 18:00|9:00 ~ 18:00|연중무휴|Y|Y|Y|공항관련 및 팔공산일대 정보제공|http://www.daegutravel.or.kr, http://tour.daegu.go.kr
수성못 관광안내소|35.82937671|128.6205781|수성구청|053-761-0645|대구광역시 수성구 무학로 112|휴대폰충전, 지팡이 대여 등|수성못 상화동산 동편 입구|10:00 ~ 19:00|9:00 ~ 18:00|연중무휴|Y|Y|Y|수성못 관광안내 및 도서 대여 서비스(상화동산 북카페-안내소 內 위치)를 제공하고 있습니다.|없음
모명재 관광안내소|35.85848031|128.6517239|수성구청|053-741-6712|대구광역시 수성구 달구벌대로525길 14-23|휴대폰충전|모명재 내부|9:00 ~ 18:00|9:00 ~ 18:00|연중무휴|Y|Y|Y|모명재 관광안내|없음
동대구역 관광안내소|35.87943775|128.62871850000002|대구광역시관광협회|053-939-0080|대구광역시 동구 동대구로 550|통역 서비스|동대구역 광장|9:00 ~ 19:00|9:00 ~ 19:00|연중무휴|Y|Y|Y|동대구역 관광안내소는 동대구역 광장 내에 위치하고 있다. 관광·교통·음식·쇼핑 및 숙박시설 안내 뿐 아니라 통역 서비스가 가능하다.|http://www.daegutravel.or.kr/
