name|latitude|longitude|management|phone_number|adress|service|location|SSID
산격1동주민센터|35.8122214|128.5228091|대구광역시 북구청|053-665-2477|대구광역시 달서구 진천로9길 33 (진천동)|KT|민원실|Public WiFi Free
산격2동주민센터|35.8142773|128.54504640000002|대구광역시 북구청|053-665-2477|대구광역시 달서구 상인서로 40 (상인동)|KT|민원실|Public WiFi Free
산격3동주민센터|35.81255487|128.5362895|대구광역시 북구청|053-665-2477|대구광역시 달서구 상원로 27 (상인동)|KT|민원실|Public WiFi Free
산격4동주민센터|35.8100742|128.55023390000002|대구광역시 북구청|053-665-2477|대구광역시 달서구 상인로 25 (상인동)|KT|민원실|Public WiFi Free
성림효사랑 실버타운|35.8074901|128.5322212|대구광역시 북구청|053-665-2477|대구광역시 달서구 한실로 53 (도원동)|KT|건물 내|Public WiFi Free
성보재활원|35.8291236|128.5547781|대구광역시 북구청|053-665-2477|대구광역시 달서구 중흥로8길 41 (송현동)|KT|건물 내|Public WiFi Free
이곡장미공원|35.85741363|128.51446299999998|대구광역시 달서구청|053-667-2471|대구광역시 달서구 선원남로 129|대구시자가통신망|전체|-
월성종합사회복지관|35.83156785|128.5298746|대구광역시 달서구청|053-667-2471|대구광역시 달서구 학산로7길 39 (월성동)|SKT|전체|-
성서종합사회복지관|35.85229857|128.4988252|대구광역시 달서구청|053-667-2471|대구광역시 달서구 신당로 56 (신당동)|SKT|전체|-
신당종합사회복지관|35.853843499999996|128.497451|대구광역시 달서구청|053-667-2471|대구광역시 달서구 신당로 55 (신당동)|SKT|전체|-
월배노인복지센터|35.82175331|128.5214315|대구광역시 달서구청|053-667-2471|대구광역시 달서구 조암남로20길 48 (월성동)|SKT|전체|-
달서별빛캠프 캠핑장|35.82324257|128.55704440000002|대구광역시 달서구청|053-667-2471|대구광역시 달서구 앞산순환로 248 (송현동)|KT|전체|-
달서가족문화도서관|35.81748676|128.5191877|대구광역시 달서구청|053-667-2471|대구광역시 달서구 조암남로 137 (대천동)|LGU+|전체|-
선사유적공원|35.809579600000006|128.5216391|대구광역시 달서구청|053-667-2471|대구광역시 달서구 상화로15길 33|대구시자가통신망|전체|-
본리어린이공원|35.84056015|128.5418156|대구광역시 달서구청|053-667-2471|대구광역시 달서구 당산로 37-25|대구시자가통신망|전체|-
월배공원|35.81283464|128.53674329999998|대구광역시 달서구청|053-667-2471|대구광역시 달서구 상원로 32|대구시자가통신망|전체|-
월촌공원|35.81277938|128.54894850000002|대구광역시 달서구청|053-667-2471|대구광역시 달서구 상인로 68-4|대구시자가통신망|전체|-
도원도서관|35.80679505|128.5390595|대구광역시 달서구청|053-667-2471|대구광역시 달서구 한실로 113|SKT|전체|-
양계농협대경지점|35.843800200000004|128.58026809999998|대구광역시 남구청|053-664-2472|대구광역시 남구 현충로 124|SKT|대합실|Public WiFi Free
두류공원 스케이트장|35.84454401|128.5637896|대구광역시 남구청|053-664-2472|대구광역시 남구 성당로 90-2|SKT|대합실|Public WiFi Free
앞산공원 공중전화3|35.84004746|128.5688897|대구광역시 남구청|053-664-2472|대구광역시 남구 앞산순환로 574-116|KT|부스내|Public WiFi Free
남대구우체국|35.8506407|128.5910051|대구광역시 남구청|053-664-2472|대구광역시 남구 중앙대로 200|KT|대합실|Public WiFi Free
현충로역|35.845805|128.578038|대구광역시 남구청|053-664-2472|대구광역시 남구 대명서7길 149-6|LGU+|대합실|Public WiFi Free
이공대창업보육센터|35.84734228|128.58543219999999|대구광역시 남구청|053-664-2472|대구광역시 남구 현충로 170|LGU+|대합실|Public WiFi Free
영남대학교의료원|35.8469593|128.5858017|대구광역시 남구청|053-664-2472|-|LGU+|대합실|Public WiFi Free
엔제리너스 대구대덕점|35.8349281|128.6036027|대구광역시 남구청|053-664-2472|대구광역시 남구 대덕로40길 140|LGU+|건물내|Public WiFi Free
안지랑역|35.842877|128.575925|대구광역시 남구청|053-664-2472|-|LGU+|대합실|Public WiFi Free
성당못역|35.835545|128.567205|대구광역시 남구청|053-664-2472|-|LGU+|대합실|Public WiFi Free
롯데리아 영대병원|35.845255|128.5898909|대구광역시 남구청|053-664-2472|대구광역시 남구 대명로 313|LGU+|건물내|Public WiFi Free
롯데리아 대구안지랑|35.838916999999995|128.57499679999998|대구광역시 남구청|053-664-2472|대구광역시 남구 대명로 160-2|LGU+|건물내|Public WiFi Free
롯데리아 대구계명|35.85470120000001|128.5833579|대구광역시 남구청|053-664-2472|대구광역시 남구 현충로 250|LGU+|건물내|Public WiFi Free
대명역|35.840437200000004|128.5630533|대구광역시 남구청|053-664-2472|-|LGU+|대합실|Public WiFi Free
대구도시철도3호선 대봉교역|35.854911|128.6065054|대구광역시 남구청|053-664-2472|대구광역시 남구 명덕로 330|LGU+|대합실|Public WiFi Free
대구도시철도3호선 건들바위역|35.855352200000006|128.599599|대구광역시 남구청|053-664-2472|대구광역시 남구 명덕로 260|LGU+|대합실|Public WiFi Free
대구교육대평생교육원|35.8405107|128.5709779|대구광역시 남구청|053-664-2472|대구광역시 남구 도촌길 37|LGU+|대합실|Public WiFi Free
교대역|35.8418652|128.58647109999998|대구광역시 남구청|053-664-2472|대구광역시 남구 대명로54길 28-6|LGU+|대합실|Public WiFi Free
계명대학교|35.85428029999999|128.5805659|대구광역시 남구청|053-664-2472|대구광역시 남구명덕로 104|LGU+|대합실|Public WiFi Free
ms재건병원|35.85371369|128.5901816|대구광역시 남구청|053-664-2472|대구광역시 남구 중앙대로 227|LGU+|대합실|Public WiFi Free
대명5동행정복지센터|35.8432344|128.5878291|대구광역시 남구청|053-664-2472|대구광역시 남구 대명로58길 11|KT|민원실|Public WiFi Free
대명3동행정복지센터|35.8523781|128.5791382|대구광역시 남구청|053-664-2472|대구광역시 남구 명덕로20길 115|KT|민원실|Public WiFi Free
대명2동행정복지센터|35.855284600000005|128.5864555|대구광역시 남구청|053-664-2472|대구광역시 남구 명덕로32길 30|KT|민원실|Public WiFi Free
대명1동행정복지센터|35.8417305|128.5735803|대구광역시 남구청|053-664-2472|대구광역시 남구 두류공원로 38|KT|민원실|Public WiFi Free
대명11동행정복지센터|35.83624038|128.56063410000002|대구광역시 남구청|053-664-2472|대구광역시 남구 관문시장4길 53|KT|민원실|Public WiFi Free
대명10동행정복지센터|35.84002858|128.5689557|대구광역시 남구청|053-664-2472|대구광역시 남구 대명복개로4길 166|KT|민원실|Public WiFi Free
웰빙전통안마센터|35.8591786|128.5758597|대구광역시 남구청|053-664-2472|대구광역시 남구 명덕로 46|SKT|휴게실|Public WiFi Free
영선시장|35.8521435|128.5922608|대구광역시 남구청|053-664-2472|대구광역시 남구 중앙대로 46길 15|SKT|시장내|Public WiFi Free
앞산베네스트|35.8348151|128.5839212|대구광역시 남구청|053-664-2472|대구광역시 남구 큰골길 146|SKT|휴게실|Public WiFi Free
성당시장|35.850231|128.5730452|대구광역시 남구청|053-664-2472|대구광역시 남구 성당로 196|SKT|시장내|Public WiFi Free
서부정류장|35.8367855|128.5577515|대구광역시 남구청|053-664-2472|대구광역시 남구 월배로 496|SKT|대합실|Public WiFi Free
봉덕신시장|35.84507429999999|128.6032952|대구광역시 남구청|053-664-2472|대구광역시 남구 봉덕로 115|SKT|시장내|Public WiFi Free
명덕시장|35.8450282|128.5879639|대구광역시 남구청|053-664-2472|대구광역시 남구 명덕시장길 90|SKT|시장내|Public WiFi Free
대명시장 및 대명신시장|35.8583423|128.57715829999998|대구광역시 남구청|053-664-2472|대구광역시 남구 명덕로 60|SKT|시장내|Public WiFi Free
대덕노인종합복지관|35.8361234|128.5838748|대구광역시 남구청|053-664-2472|대구광역시 남구 큰골길 137|SKT|휴게실|Public WiFi Free
대구아동복지센터|35.8414687|128.604038|대구광역시 남구청|053-664-2472|대구광역시 남구 중앙대로22길 242|SKT|휴게실|Public WiFi Free
대구시청소년문화의집|35.8559167|128.5871352|대구광역시 남구청|053-664-2472|대구광역시 남구 명덕로34길 16|SKT|휴게실|Public WiFi Free
이천동주민센터|35.85369579|128.599404|대구광역시 남구청|053-664-2472|대구광역시 남구 이천로28길 18 (이천동)|SKT|민원실|Public WiFi Free
유가면사무소|35.853412899999995|128.5251887|대구광역시 달성군청|053-668-2473|대구광역시 달서구 달구벌대로291길 100 (용산동)|LGU+|민원실|Public WiFi Free
유치곤장군기념관|35.807198799999995|128.55944879999998|대구광역시 달성군청|053-668-2473|대구광역시 달서구 상화로 420 (상인동)|LGU+|기념관|Public WiFi Free
음리보건지소|35.84061243|128.5531497|대구광역시 달성군청|053-668-2473|대구광역시 달서구 야외음악당로 38 (성당동)|LGU+|민원실|Public WiFi Free
화원보건지소|35.84101503|128.5431658|대구광역시 달성군청|053-668-2473|대구광역시 달서구 당산로 37-14 (본리동)|LGU+|민원실|Public WiFi Free
논공읍사무소|35.7233173|128.4545652|대구광역시 달성군청|053-668-2473|대구광역시 달성군 논공읍 논공로 242|KT|민원실|Public WiFi Free
현풍면사무소|35.6988635|128.4519976|대구광역시 달성군청|053-668-2473|대구광역시 달성군 현풍면 현풍동로 92|KT|민원실|Public WiFi Free
달성군보건소|35.7745414|128.4313244|대구광역시 달성군청|053-668-2473|대구광역시 달성군 논공읍 달성군청로 33|KT|민원실|Public WiFi Free
다사보건지소|35.803907|128.500813|대구광역시 달성군청|053-668-2473|대구광역시 달성군 화원읍 비슬로 2594|KT|민원실|Public WiFi Free
가창보건지소|35.7303037|128.45191979999998|대구광역시 달성군청|053-668-2473|대구광역시 달성군 논공읍 논공로 697-9|KT|민원실|Public WiFi Free
하빈보건지소|35.6938854|128.4598183|대구광역시 달성군청|053-668-2473|대구광역시 달성군 유가읍 테크노상업로 95|KT|민원실|Public WiFi Free
옥포보건지소|35.803907|128.500813|대구광역시 달성군청|053-668-2473|대구광역시 달성군 화원읍 비슬로 2594|SKT|민원실|Public WiFi Free
구지보건지소|35.6948119|128.44033090000002|대구광역시 달성군청|053-668-2473|대구광역시 달성군 현풍면 비슬로130길 17|KT|민원실|Public WiFi Free
논공시장(등록)|35.8025854|128.62295600000002|대구광역시 달성군청|053-668-2473|대구광역시 달성군 가창면 가창로 1100|SKT|시장內|Public WiFi Free
구지시장(등록)|35.658770700000005|128.4135612|대구광역시 달성군청|053-668-2473|대구광역시 달성군 구지면 창리로 11길 38|LGU+|시장內|Public WiFi Free
달성문화복지센터|35.65778707|128.4127038|대구광역시 달성군청|053-668-2473|대구광역시 달성군 구지면 창리로11길 15-5|KT|사무실|Public WiFi Free
성서보건지소|35.85578401|128.5011389|대구광역시 달서구청|053-667-2471|대구광역시 달서구 계대동문로 79 (이곡동)|SKT|민원실|-
달서구자원봉사센터|35.81222021|128.5228075|대구광역시 달서구청|053-667-2471|대구광역시 달서구 진천로9길 33 (진천동)|SKT|전체|-
본리종합사회복지관|35.8410174|128.5431658|대구광역시 달서구청|053-667-2471|대구광역시 달서구 당산로 37-14 (본리동)|SKT|전체|-
달성군장애인복지관|35.8435085|128.6951977|대구광역시 달성군청|053-668-2473|대구광역시 수성구 달구벌대로 3091(시지동)|LGU+|복지시설內|Public WiFi Free
행복울타리|35.8547435|128.619027|대구광역시 달성군청|053-668-2473|대구광역시 수성구 명덕로 443-2 (수성동3가)|자체설치|복지시설內|Public WiFi Free
달성군장애인재활자립작업장|35.815526899999995|128.6152046|대구광역시 달성군청|053-668-2473|대구광역시 수성구 파동로 136 (파동)|자체설치|복지시설內|Public WiFi Free
달성군노인복지관|35.871827|128.6464214|대구광역시 달성군청|053-668-2473|대구광역시 수성구 무열로29길 24(만촌동)|LGU+|사무실|Public WiFi Free
달성문화원|35.8556725|128.616975|대구광역시 달성군청|053-668-2473|대구광역시 수성구 들안로 285-57|LGU+|사무실|Public WiFi Free
한일우호관|35.8179961|128.6156387|대구광역시 달성군청|053-668-2473|대구광역시 수성구 파동로26길 6|LGU+|사무실|Public WiFi Free
달성군청소년센터|35.872189399999996|128.6393415|대구광역시 달성군청|053-668-2473|대구광역시 수성구 만촌로 151|LGU+|사무실|Public WiFi Free
달성군민체육센터|35.8088907|128.55515079999998|대구광역시 달성군청|053-668-2473|대구광역시 달서구 상화로 373 (상인동)|LGU+|체육센터內|Public WiFi Free
달성군청 도서관|35.8426499|128.5523993|대구광역시 달성군청|053-668-2473|대구광역시 달서구 야외음악당로13길 7 (성당동)|LGU+|도서관|Public WiFi Free
화원도서관|35.8559479|128.5254738|대구광역시 달성군청|053-668-2473|대구광역시 달서구 장산2길 34 (용산동)|LGU+|도서관|Public WiFi Free
달성군청 민원실|35.8582653|128.5316115|대구광역시 달성군청|053-668-2473|대구광역시 달서구 달구벌대로301길 186 (용산동)|LGU+|민원실|Public WiFi Free
화원읍사무소|35.8075918|128.53549040000001|대구광역시 달성군청|053-668-2473|대구광역시 달서구 도원로 24 (도원동)|LGU+|민원실|Public WiFi Free
달성군종합사회복지관|35.8558242|128.4993413|대구광역시 달성군청|053-668-2473|대구광역시 달서구 성서서로69길 7|LGU+|사무실|Public WiFi Free
옥포면사무소|35.811678|128.5378173|대구광역시 달성군청|053-668-2473|대구광역시 달서구 상원로 22-24 (상인동)|LGU+|민원실|Public WiFi Free
장기동 행정복지센터|35.8424354|128.5959628|대구광역시 달서구청|053-667-2471|대구광역시 남구 중앙대로 22길 100|LGU+|민원실|Public WiFi Free
용산1동 행정복지센터|35.8367855|128.5577515|대구광역시 달서구청|053-667-2471|대구광역시 남구 월배로 496|LGU+|민원실|Public WiFi Free
용산2동 행정복지센터|35.8533408|128.5997156|대구광역시 달서구청|053-667-2471|대구광역시 남구 이천로28길 42-43 (이천동)|LGU+|민원실|Public WiFi Free
이곡1동 행정복지센터|35.841288399999996|128.5774249|대구광역시 달서구청|053-667-2471|대구광역시 남구 현충로19길 43 (대명동)|LGU+|민원실|Public WiFi Free
이곡2동 행정복지센터|35.8438374|128.6011308|대구광역시 달서구청|053-667-2471|대구광역시 남구 이천로10길 50 (봉덕동)|LGU+|민원실|Public WiFi Free
신당동 행정복지센터|35.9449107|128.54722560000002|대구광역시 달서구청|053-667-2471|대구광역시 북구 관음중앙로28길 1 (관음동)|LGU+|민원실|Public WiFi Free
월성1동 행정복지센터|35.8901384|128.5762308|대구광역시 달서구청|053-667-2471|대구광역시 북구 노원로10길 166|LGU+|민원실|Public WiFi Free
월성2동 행정복지센터|35.906302200000006|128.60274170000002|대구광역시 달서구청|053-667-2471|대구광역시 북구 연암로42길 77 (산격동)|LGU+|민원실|Public WiFi Free
진천동 행정복지센터|35.9378261|128.5455021|대구광역시 달서구청|053-667-2471|대구광역시 북구 관음동로9길 10-25 (관음동)|LGU+|민원실|Public WiFi Free
상인1동 행정복지센터|35.89866729999999|128.6169196|대구광역시 달서구청|053-667-2471|대구광역시 북구 검단로 8-14|LGU+|민원실|Public WiFi Free
상인2동 행정복지센터|35.881181899999994|128.6089517|대구광역시 달서구청|053-667-2471|대구광역시 북구 대현로20길 30|LGU+|민원실|Public WiFi Free
상인3동 행정복지센터|35.9100787|128.57621310000002|대구광역시 달서구청|053-667-2471|대구광역시 북구 조야로 31-1|LGU+|민원실|Public WiFi Free
도원동 행정복지센터|35.8926191|128.5946639|대구광역시 달서구청|053-667-2471|대구광역시 북구 연암로 88|LGU+|민원실|Public WiFi Free
송현1동 행정복지센터|35.89352623|128.6083117|대구광역시 달서구청|053-667-2471|대구광역시 북구 대학로15길 16|LGU+|민원실|Public WiFi Free
송현2동 행정복지센터|35.8856404|128.6025896|대구광역시 달서구청|053-667-2471|대구광역시 북구 신천동로 740|LGU+|민원실|Public WiFi Free
본동 행정복지센터|35.8772404|128.6039645|대구광역시 달서구청|053-667-2471|대구광역시 북구 칠성시장로 34|LGU+|민원실|Public WiFi Free
달서구보건소|35.8772404|128.6039645|대구광역시 달서구청|053-667-2471|대구광역시 북구 칠성시장로 34|LGU+|민원실|Public WiFi Free
성서보건지소|35.887263700000005|128.596993|대구광역시 달서구청|053-667-2471|대구광역시 북구 침산남로 195|SKT|민원실|Public WiFi Free
달서구자원봉사센터|35.9240928|128.54333229999997|대구광역시 달서구청|053-667-2471|대구광역시 북구 태전로7길 10-24|SKT|전체|Public WiFi Free
본리종합사회복지관|35.921653899999995|128.544899|대구광역시 달서구청|053-667-2471|대구광역시 북구 태전로 15|SKT|전체|Public WiFi Free
월성종합사회복지관|35.9316356|128.5461611|대구광역시 달서구청|053-667-2471|대구광역시 북구 칠곡중앙대로 397-20|SKT|전체|Public WiFi Free
성서종합사회복지관|35.846864399999994|128.6209098|대구광역시 달서구청|053-667-2471|대구광역시 수성구 희망로 201(황금동)|SKT|전체|Public WiFi Free
신당종합사회복지관|35.8580437|128.630552|대구광역시 달서구청|053-667-2471|대구광역시 수성구 달구벌대로 2450(범어동)|SKT|전체|Public WiFi Free
월배노인복지센터|35.84237460000001|128.7243619|대구광역시 달서구청|053-667-2471|대구광역시 수성구 성동로 74-16(사월동)|SKT|전체|Public WiFi Free
달서별빛캠프 캠핑장|35.844784600000004|128.6122124|대구광역시 달서구청|053-667-2471|대구광역시 수성구 수성로 213(중동)|KT|전체|Public WiFi Free
달서가족문화도서관|35.837131799999995|128.7124229|대구광역시 달서구청|053-667-2471|대구광역시 수성구 달구벌대로 3260-2(신매동)|LGU+|전체|Public WiFi Free
도원시장|35.8605891|128.5647531|대구광역시 달서구청|053-667-2471|대구광역시 서구 달구벌대로1829|LGU+|전체|Public WiFi Free
대곡시장|35.8820846|128.5780387|대구광역시 달서구청|053-667-2471|대구광역시 서구 달서천로83길6|SKT|전체|Public WiFi Free
송현주공시장|35.8681107|128.5607115|대구광역시 달서구청|053-667-2471|대구광역시 서구 국채보상로52길33|SKT|전체|Public WiFi Free
용산종합큰시장|35.8737833|128.55572379999998|대구광역시 달서구청|053-667-2471|대구광역시 서구 국채보상로45길33|LGU+|전체|Public WiFi Free
성서와룡시장|35.865331700000006|128.55725379999998|대구광역시 달서구청|053-667-2471|대구광역시 서구 국채보상로46길57|LGU+|전체|Public WiFi Free
두류종합시장|35.8712414|128.5636881|대구광역시 달서구청|053-667-2471|대구광역시 서구 국채보상로60길6|LGU+|전체|Public WiFi Free
대동시장|35.8755091|128.5640882|대구광역시 달서구청|053-667-2471|대구광역시 서구 문화로 288|SKT|전체|Public WiFi Free
달구벌종합복지관|35.88020128|128.572299|대구광역시 달서구청|053-667-2471|대구광역시 서구 북비산로71길7|LGU+|전체|Public WiFi Free
대구시각장애인복지관|35.8769518|128.5507569|대구광역시 달서구청|053-667-2471|대구광역시 서구 문화로33길24|LGU+|전체|Public WiFi Free
대구청각언어장애인복지관|35.8606622|128.5607111|대구광역시 달서구청|053-667-2471|대구광역시 서구 서대구로4길35|LGU+|전체|Public WiFi Free
학산보호작업장|35.8672719|128.574556|대구광역시 달서구청|053-667-2471|대구광역시 서구 큰장로15길11-1|KT|전체|Public WiFi Free
대구광역시청소년수련원|35.8861045|128.5700977|대구광역시 달서구청|053-667-2471|대구광역시 서구 달서천로61안길17|LGU+|전체|Public WiFi Free
달서구청소년수련관|35.888001700000004|128.55355590000002|대구광역시 달서구청|053-667-2471|대구광역시 서구 염색공단로5길4|LGU+|전체|Public WiFi Free
달서구청소년문화의집|35.8759232|128.5613114|대구광역시 달서구청|053-667-2471|대구광역시 서구 문화로261|LGU+|전체|Public WiFi Free
성당동 행정복지센터|35.88681679999999|128.574408|대구광역시 달서구청|053-667-2471|대구광역시 서구 달서로55길5|LGU+|민원실|Public WiFi Free
두류1·2동 행정복지센터|35.87456227|128.5721344|대구광역시 달서구청|053-667-2471|대구광역시 서구 달서로28길9-2|LGU+|민원실|Public WiFi Free
두류3동 행정복지센터|35.8619496|128.56371529999998|대구광역시 달서구청|053-667-2471|대구광역시 서구 서대구로8길64|LGU+|민원실|Public WiFi Free
본리동 행정복지센터|35.8432344|128.5878291|대구광역시 달서구청|053-667-2471|대구광역시 남구 대명로58길 11|LGU+|민원실|Public WiFi Free
감삼동 행정복지센터|35.8313155|128.5770017|대구광역시 달서구청|053-667-2471|대구광역시 남구 앞산순환로 478|LGU+|민원실|Public WiFi Free
죽전동 행정복지센터|35.83509159|128.5660918|대구광역시 달서구청|053-667-2471|대구광역시 남구 대명남로 73|LGU+|민원실|Public WiFi Free
성당지역아동센터|35.8830561|128.578048|대구광역시 달서구청|053-667-2471|대구광역시 서구 달서천로83길13|SKT|전체|Public WiFi Free
행복누리장애인보호작업장|35.8664126|128.52562220000002|대구광역시 달서구청|053-667-2471|대구광역시 서구 새방로25길46|SKT|전체|Public WiFi Free
달구벌종합스포츠센터|35.8842282|128.5552275|대구광역시 달서구청|053-667-2471|대구광역시 서구 서대구로295|SKT|전체|Public WiFi Free
섬들보호작업장|35.873636|128.5457716|대구광역시 달서구청|053-667-2471|대구광역시 서구 문화로122|LGU+|전체|Public WiFi Free
대구성로원|35.8585649|128.54063159999998|대구광역시 달서구청|053-667-2471|대구광역시 서구 평리로148|LGU+|전체|Public WiFi Free
대구학생문화센터|35.871898200000004|128.5614469|대구광역시 달서구청|053-667-2471|대구광역시 서구 국채보상로279|LGU+|전체|Public WiFi Free
자용모자복지관|35.8690202|128.5558445|대구광역시 달서구청|053-667-2471|대구광역시 서구 국채보상로46길16|LGU+|전체|Public WiFi Free
월배(신)시장|35.871802200000005|128.55922040000002|대구광역시 달서구청|053-667-2471|대구광역시 서구 국채보상로257|LGU+|전체|Public WiFi Free
파동주민센터|35.8894286|128.6496203|한국통신사업자협회|1899-4876|대구광역시 동구 동촌로11길 5(입석동)|KT|민원실|Public WiFi Free
두산동주민센터|35.9100034|128.6500078|한국통신사업자협회|1899-4876|대구광역시 동구 팔공로24길 171(도동)|KT|민원실|Public WiFi Free
만촌시장|35.8829095|128.6427347|한국통신사업자협회|1899-4876|대구광역시 동구 효동로15길 13(효목동)|KT|시장 입구|Public WiFi Free
동성시장|35.8820761|128.6716797|한국통신사업자협회|1899-4876|대구광역시 동구 방촌로29길 46(방촌동)|KT|시장 입구|Public WiFi Free
신천시장|35.87349879999999|128.6248207|한국통신사업자협회|1899-4876|대구광역시 동구 동대구로 483|SKT|시장 입구|Public WiFi Free
수성시장|35.872174|128.6247892|한국통신사업자협회|1899-4876|대구광역시 동구 동대구로 467|SKT|시장 입구|Public WiFi Free
태백시장|35.87416270000001|128.6248868|한국통신사업자협회|1899-4876|대구광역시 동구 동대구로 489|SKT|시장 입구|Public WiFi Free
목련모자원|35.8754306|128.62511270000002|한국통신사업자협회|1899-4876|대구광역시 동구 동대구로 503|SKT|휴게실|Public WiFi Free
고산권보건복지센터|35.88189713|128.65113290000002|한국통신사업자협회|1899-4876|대구광역시 동구 효동로6길 80|LGU+|민원실|Public WiFi Free
성림노인요양원|35.8825099|128.64983519999998|한국통신사업자협회|1899-4876|대구광역시 동구 효동로6길 66|SKT|휴게실|Public WiFi Free
화랑공원|35.873479100000004|128.628599|한국통신사업자협회|1899-4877|대구광역시 동구 동부로30길 40|SKT|지역문화시설|Public WiFi Free
달서지역자활센터|35.8790756|128.62871850000002|대구광역시 달서구청|053-667-2471|대구광역시 동구 동대구로 550|SKT|전체|Public WiFi Free
달서행복지역자활센터|35.8802844|128.5692187|대구광역시 달서구청|053-667-2471|대구광역시 서구 북비산로65길6-3|SKT|전체|Public WiFi Free
달서구청소년쉼터|35.8610365|128.5633478|대구광역시 달서구청|053-667-2471|대구광역시 서구 달구벌대로365길3|SKT|전체|Public WiFi Free
태전1동주민센터|35.8527016|128.4979101|대구광역시 북구청|053-665-2477|대구광역시 달서구 신당로 56 (신당동)|KT|민원실|Public WiFi Free
태전2동주민센터|35.854749600000005|128.49785649999998|대구광역시 북구청|053-665-2477|대구광역시 달서구 신당로 55 (신당동)|KT|민원실|Public WiFi Free
태전중앙시장|35.8217602|128.521462|대구광역시 북구청|053-665-2477|대구광역시 달서구 조암남로20길 48 (월성동)|LGU+|태전중앙시장 일대|Public WiFi Free
함지노인복지관|35.82324193|128.55703799999998|대구광역시 북구청|053-665-2477|대구광역시 달서구 앞산순환로 248 (송현동)|SKT|건물 내|Public WiFi Free
태전공원|35.81748676|128.5191877|대구광역시 북구청|000-0000-0000|대구광역시 달서구 조암남로 137 (대천동)|KT(구청 자체 설치)|공원 내|Public WiFi Free
대구장애인종합복지관|35.7233173|128.4545652|한국통신사업자협회|1899-4876|대구광역시 달성군 논공읍 논공로 242|LGU+|휴게실|Public WiFi Free
애활원|35.8018248|128.4874588|한국통신사업자협회|1899-4876|대구광역시 달성군 화원읍 성천로 39|LGU+|휴게실|Public WiFi Free
황금시장|35.788897399999996|128.4717664|한국통신사업자협회|1899-4876|대구광역시 달성군 옥포면 옥포로 13|LGU+|시장 입구|Public WiFi Free
노인종합복지회관|35.7226391|128.6465416|한국통신사업자협회|1899-4876|대구광역시 달성군 가창면 우록길 206|LGU+|휴게실|Public WiFi Free
SOS아동보호센터|35.7238941|128.4550625|한국통신사업자협회|1899-4876|대구광역시 달성군 논공읍 논공로 252|KT|휴게실|Public WiFi Free
수성구청 별관|35.70169037|128.4418193|한국통신사업자협회|1899-4876|대구광역시 달성군 현풍면 현풍동로 180|KT|민원실|Public WiFi Free
수성구청 본관|35.7745414|128.4313244|한국통신사업자협회|1899-4876|대구광역시 달성군 논공읍 달성군청로 33|KT|민원실|Public WiFi Free
성림아동원|35.803907|128.500813|한국통신사업자협회|1899-4876|대구광역시 달성군 화원읍 비슬로 2594|KT|휴게실|Public WiFi Free
인제요양원|35.7893104|128.4638592|한국통신사업자협회|1899-4876|대구광역시 달성군 옥포면 비슬로 2215|KT|휴게실|Public WiFi Free
애망요양원|35.70013059|128.4989673|한국통신사업자협회|1899-4876|대구광역시 달성군 유가읍 휴양림길 375|KT|휴게실|Public WiFi Free
수성구보건소|35.69757655|128.4828252|한국통신사업자협회|1899-4876|대구광역시 달성군 유가읍 음동1길 9|SKT|민원실|Public WiFi Free
수성현대시장|35.7742545|128.42019059999998|한국통신사업자협회|1899-4876|대구광역시 달성군 논공읍 비슬로 1779|LGU+|시장 입구|Public WiFi Free
고산1동주민센터|35.697368100000006|128.44766090000002|한국통신사업자협회|1899-4876|대구광역시 달성군 현풍면 비슬로134길 157|KT|민원실|Public WiFi Free
고산3동주민센터|35.86481448|128.4573053|한국통신사업자협회|1899-4876|대구광역시 달성군 다사읍 매곡로 12길 37|KT|민원실|Public WiFi Free
상동주민센터|35.9017047|128.44483390000002|한국통신사업자협회|1899-4876|대구광역시 달성군 하빈면 하빈로 423|SKT|민원실|Public WiFi Free
고산2동주민센터|35.7893104|128.4638592|한국통신사업자협회|1899-4876|대구광역시 달성군 옥포면 비슬로 2215|SKT|민원실|Public WiFi Free
지산1동주민센터|35.774035299999994|128.4217832|한국통신사업자협회|1899-4876|대구광역시 달성군 논공읍 금포시장길 4|SKT|민원실|Public WiFi Free
황금1동주민센터|35.865245|128.46070690000002|한국통신사업자협회|1899-4876|대구광역시 달성군 다사읍 대실역 북로2길 188|SKT|민원실|Public WiFi Free
수성23가동주민센터|35.8687493|128.61247859999997|한국통신사업자협회|1899-4876|대구광역시 중구 국채보상로 749|KT|민원실|Public WiFi Free
황금2동주민센터|35.864951|128.6012747|한국통신사업자협회|1899-4876|대구광역시 중구 공평로4길 24-7|SKT|민원실|Public WiFi Free
중동주민센터|35.8753917|128.6237458|한국통신사업자협회|1899-4876|대구광역시 동구 장등로90(입석동)|KT|민원실|Public WiFi Free
칠성시장|35.832794299999996|128.5456058|대구광역시 북구청|053-665-2477|대구광역시 달서구 월배로83길 120-14 (송현동)|KT|칠성시장 일대|Public WiFi Free
칠성시장 (삼성)|35.8344453|128.54108119999998|대구광역시 북구청|053-665-2477|대구광역시 달서구 구마로26길 62 (본동)|KT|칠성시장 일대|Public WiFi Free
칠성시장 (청과)|35.8297339|128.5326441|대구광역시 북구청|053-665-2477|대구광역시 달서구 학산로 45 (월성동)|KT|칠성시장 일대|Public WiFi Free
칠성시장 (경명)|35.85578221|128.5011352|대구광역시 북구청|053-665-2477|대구광역시 달서구 계대동문로 79 (이곡동)|KT|칠성시장 일대|Public WiFi Free
침산1동주민센터|35.8122214|128.5228091|대구광역시 북구청|053-665-2477|대구광역시 달서구 진천로9길 33 (진천동)|KT|민원실|Public WiFi Free
침산2동 주민센터|35.84101503|128.5431658|대구광역시 북구청|053-665-2477|대구광역시 달서구 당산로 37-14 (본리동)|KT|민원실|Public WiFi Free
침산3동주민센터|35.832631899999996|128.530545|대구광역시 북구청|053-665-2477|대구광역시 달서구 학산로7길 39 (월성동)|KT|민원실|Public WiFi Free
대불노인복지관|35.8566419|128.5312386|대구광역시 북구청|053-665-2477|대구광역시 달서구 용산로 212-7 (용산동)|SKT|복지관내|Public WiFi Free
대현동주민센터|35.858431|128.5230185|대구광역시 북구청|053-665-2477|대구광역시 달서구 선원로 278 (용산동)|KT|민원실|Public WiFi Free
동대구시장|35.8516557|128.5106752|대구광역시 북구청|053-665-2477|대구광역시 달서구 달구벌대로 1309 (이곡동)|KT|동대구시장 일대|Public WiFi Free
동천동 주민센터|35.8558089|128.5008392|대구광역시 북구청|053-665-2477|대구광역시 달서구 계대동문로 77 (이곡동)|KT|민원실|Public WiFi Free
무태조야동 분소|35.858976299999995|128.4988484|대구광역시 북구청|053-665-2477|대구광역시 달서구 선원로 60 (신당동)|KT|민원실|Public WiFi Free
복현2동주민센터|35.8195332|128.5228739|대구광역시 북구청|053-665-2477|대구광역시 달서구 조암남로 97 (월성동)|KT|민원실|Public WiFi Free
북구보건소|35.830959899999996|128.5283025|대구광역시 북구청|053-665-2477|대구광역시 달서구 월성로 65 (월성동)|KT|민원실|Public WiFi Free
진천동 행정복지센터|35.81222021|128.5228075|대구광역시 달서구청|053-667-2471|대구광역시 달서구 진천로9길 33 (진천동)|LGU+|민원실|-
상인1동 행정복지센터|35.81426653|128.54500819999998|대구광역시 달서구청|053-667-2471|대구광역시 달서구 상인서로 40 (상인동)|LGU+|민원실|-
상인2동 행정복지센터|35.81255741|128.53625459999998|대구광역시 달서구청|053-667-2471|대구광역시 달서구 상원로 27 (상인동)|LGU+|민원실|-
상인3동 행정복지센터|35.81006963|128.5502023|대구광역시 달서구청|053-667-2471|대구광역시 달서구 상인로 25 (상인동)|LGU+|민원실|-
도원동 행정복지센터|35.80748297|128.53219270000002|대구광역시 달서구청|053-667-2471|대구광역시 달서구 한실로 53 (도원동)|LGU+|민원실|-
송현1동 행정복지센터|35.82922897|128.554762|대구광역시 달서구청|053-667-2471|대구광역시 달서구 중흥로8길 41 (송현동)|LGU+|민원실|-
송현2동 행정복지센터|35.83278631|128.5455779|대구광역시 달서구청|053-667-2471|대구광역시 달서구 월배로83길 120-14 (송현동)|LGU+|민원실|-
본동 행정복지센터|35.83443829|128.5410399|대구광역시 달서구청|053-667-2471|대구광역시 달서구 구마로26길 62 (본동)|LGU+|민원실|-
달서구보건소|35.82991428|128.5328409|대구광역시 달서구청|053-667-2471|대구광역시 달서구 학산로 45 (월성동)|LGU+|민원실|-
대곡시장|35.80772228|128.5351265|대구광역시 달서구청|053-667-2471|대구광역시 달서구 도원로서길 5 (도원동)|SKT|전체|-
송현주공시장|35.82275165|128.5481762|대구광역시 달서구청|053-667-2471|대구광역시 달서구 송현로12안길 38 (송현동)|SKT|전체|-
용산종합큰시장|35.8576639|128.53133300000002|대구광역시 달서구청|053-667-2471|대구광역시 달서구 달구벌대로301길 175|LGU+|전체|-
성서와룡시장|35.85623203|128.49961389999999|대구광역시 달서구청|053-667-2471|대구광역시 달서구 성서서로 347-1 (신당동)|LGU+|전체|-
두류종합시장|35.84548802|128.54514479999997|대구광역시 달서구청|053-667-2471|대구광역시 달서구 당산동길 9 (성당동)|LGU+|전체|-
대동시장|35.81166724|128.5377867|대구광역시 달서구청|053-667-2471|대구광역시 달서구 상원로 22-24 (상인동)|SKT|전체|-
달구벌종합복지관|35.85354369|128.5254597|대구광역시 달서구청|053-667-2471|대구광역시 달서구 달구벌대로291길 100 (용산동)|LGU+|전체|-
대구시각장애인복지관|35.85354369|128.5254597|대구광역시 달서구청|053-667-2471|대구광역시 달서구 달구벌대로291길 100 (용산동)|LGU+|전체|-
대구청각언어장애인복지관|35.85354369|128.5254597|대구광역시 달서구청|053-667-2471|대구광역시 달서구 달구벌대로291길 100 (용산동)|LGU+|전체|-
학산보호작업장|35.84834252|128.5130926|대구광역시 달서구청|053-667-2471|대구광역시 달서구 성서동로53안길 45 (갈산동)|KT|전체|-
대구광역시청소년수련원|35.82023996|128.5534045|대구광역시 달서구청|053-667-2471|대구광역시 달서구 앞산순환로 180 (송현동)|LGU+|전체|-
달서구청소년수련관|35.80720022|128.5594461|대구광역시 달서구청|053-667-2471|대구광역시 달서구 상화로 420 (상인동)|LGU+|전체|-
달서구청소년문화의집|35.80720022|128.5594461|대구광역시 달서구청|053-667-2471|대구광역시 달서구 상화로 420 (상인동)|LGU+|전체|-
성당동 행정복지센터|35.84061122|128.55314779999998|대구광역시 달서구청|053-667-2471|대구광역시 달서구 야외음악당로 38 (성당동)|LGU+|민원실|-
두류1·2동 행정복지센터|35.85569114|128.57219650000002|대구광역시 달서구청|053-667-2471|대구광역시 달서구 성당로51길 32 (두류동)|LGU+|민원실|-
두류3동 행정복지센터|35.85370576|128.5554754|대구광역시 달서구청|053-667-2471|대구광역시 달서구 야외음악당로39길 24 (두류동)|LGU+|민원실|-
본리동 행정복지센터|35.8410174|128.5431658|대구광역시 달서구청|053-667-2471|대구광역시 달서구 당산로 37-14 (본리동)|LGU+|민원실|-
감삼동 행정복지센터|35.8510266|128.5421825|대구광역시 달서구청|053-667-2471|대구광역시 달서구 감삼북길 119-10 (감삼동)|LGU+|민원실|-
죽전동 행정복지센터|35.85578734|128.5398014|대구광역시 달서구청|053-667-2471|대구광역시 달서구 와룡로54길 28 (죽전동)|LGU+|민원실|-
장기동 행정복지센터|35.84332056|128.52997390000002|대구광역시 달서구청|053-667-2471|대구광역시 달서구 장기로 277 (장기동)|LGU+|민원실|-
용산1동 행정복지센터|35.85663686|128.5312265|대구광역시 달서구청|053-667-2471|대구광역시 달서구 용산로 212-7 (용산동)|LGU+|민원실|-
용산2동 행정복지센터|35.85843068|128.5229898|대구광역시 달서구청|053-667-2471|대구광역시 달서구 선원로 278 (용산동)|LGU+|민원실|-
이곡1동 행정복지센터|35.8516518|128.5106562|대구광역시 달서구청|053-667-2471|대구광역시 달서구 달구벌대로 1309 (이곡동)|LGU+|민원실|-
이곡2동 행정복지센터|35.85575426|128.500776|대구광역시 달서구청|053-667-2471|대구광역시 달서구 계대동문로 77 (이곡동)|LGU+|민원실|-
신당동 행정복지센터|35.85896631|128.49883390000002|대구광역시 달서구청|053-667-2471|대구광역시 달서구 선원로 60 (신당동)|LGU+|민원실|-
월성1동 행정복지센터|35.81951189|128.52283329999997|대구광역시 달서구청|053-667-2471|대구광역시 달서구 조암남로 97 (월성동)|LGU+|민원실|-
월성2동 행정복지센터|35.83095298|128.5282767|대구광역시 달서구청|053-667-2471|대구광역시 달서구 월성로 65 (월성동)|LGU+|민원실|-
달서지역자활센터|35.85575426|128.500776|대구광역시 달서구청|053-667-2471|대구광역시 달서구 계대동문로 77 (이곡동)|SKT|전체|-
달서행복지역자활센터|35.80868638|128.5550282|대구광역시 달서구청|053-667-2471|대구광역시 달서구 상화로 373 (상인동)|SKT|전체|-
달서구청소년쉼터|35.83613091|128.5394575|대구광역시 달서구청|053-667-2471|대구광역시 달서구 와룡로10안길 11 (본동)|SKT|전체|-
성당지역아동센터|35.84264277|128.552376|대구광역시 달서구청|053-667-2471|대구광역시 달서구 야외음악당로13길 7 (성당동)|SKT|전체|-
행복누리장애인보호작업장|35.84578870000001|128.5053269|대구광역시 달서구청|053-667-2471|대구광역시 달서구 성서공단북로59길 13 (갈산동)|SKT|전체|-
달구벌종합스포츠센터|35.85354369|128.5254597|대구광역시 달서구청|053-667-2471|대구광역시 달서구 달구벌대로291길 100 (용산동)|SKT|전체|-
섬들보호작업장|35.85595016|128.5254757|대구광역시 달서구청|053-667-2471|대구광역시 달서구 장산2길 34 (용산동)|LGU+|전체|-
대구성로원|35.81048743|128.521247|대구광역시 달서구청|053-667-2471|대구광역시 달서구 진천로3길 80 (진천동)|LGU+|전체|-
대구학생문화센터|35.85302107|128.52951950000002|대구광역시 달서구청|053-667-2471|대구광역시 달서구 용산로 181 (용산동)|LGU+|전체|-
자용모자복지관|35.85825758|128.5316027|대구광역시 달서구청|053-667-2471|대구광역시 달서구 달구벌대로301길 186 (용산동)|LGU+|전체|-
월배(신)시장|35.81407487|128.5273983|대구광역시 달서구청|053-667-2471|대구광역시 달서구 월배로24길 13 (진천동)|LGU+|전체|-
도원시장|35.80757105|128.5367172|대구광역시 달서구청|053-667-2471|대구광역시 달서구 도원로동길 8 (도원동)|LGU+|전체|-
봉덕3동행정복지센터|35.84242729|128.5959239|대구광역시 남구청|053-664-2472|대구광역시 남구 중앙대로 22길 100|LGU+|민원실|Public WiFi Free
봉덕1동행정복지센터|35.84583464|128.59774529999999|대구광역시 남구청|053-664-2472|대구광역시 남구 이천로 51|LGU+|민원실|Public WiFi Free
대명6동행정복지센터|35.83511327|128.5660878|대구광역시 남구청|053-664-2472|대구광역시 남구 대명남로 73|LGU+|민원실|Public WiFi Free
대명4동행정복지센터|35.84600827|128.5695339|대구광역시 남구청|053-664-2472|대구광역시 남구 두류공원로 20길 19|LGU+|민원실|Public WiFi Free
대덕문화전당|35.8313777|128.5769993|대구광역시 남구청|053-664-2472|대구광역시 남구 앞산순환로 478|LGU+|로비|Public WiFi Free
대구여성의전화부설성(가정)폭력상담소|35.8439613|128.5979379|대구광역시 남구청|053-664-2472|대구광역시 남구 이천로 31|LGU+|휴게실|Public WiFi Free
남구청|35.845791999999996|128.59777240000003|대구광역시 남구청|053-664-2472|대구광역시 남구 이천로 51|LGU+|민원실|Public WiFi Free
남구 보건소|35.8539085|128.5915311|대구광역시 남구청|053-664-2472|대구광역시 남구 대명로58길 11|LGU+|민원실|Public WiFi Free
남구 다문화가족지원센터|35.84170799|128.5982425|대구광역시 남구청|053-664-2472|대구광역시 남구 이천로 10|LGU+|휴게실|Public WiFi Free
중구시니어클럽|35.864892299999994|128.601258|대구광역시 중구청|053-661-2473|대구광역시 중구 공평로4길 24-7|LG U+|사무실 내|Public WiFi Free
어르신마을노인복지센터|35.8567598|128.5979248|대구광역시 중구청|053-661-2473|대구광역시 중구 명륜로26길 77-2|LG U+|복지센터 내|Public WiFi Free
성내1동주민센터|35.8692709|128.5980362|대구광역시 중구청|053-661-2473|대구광역시 중구 동성로3길 87|LG U+|주민센터 내 민원실|Public WiFi Free
동부시장|35.86883225|128.6122807|대구광역시 중구청|053-661-2473|대구광역시 중구 국채보상로 749|LG U+|시장통로|Public WiFi Free
대신동주민센터|35.865572|128.5763499|대구광역시 중구청|053-661-2473|대구광역시 중구 달구벌대로389길 50|LG U+|주민센터 내 민원실|Public WiFi Free
대봉2동주민센터|35.858149|128.599763|대구광역시 중구청|053-661-2473|대구광역시 중구 대봉로45길 29|LG U+|주민센터 내 민원실|Public WiFi Free
대봉1동주민센터|35.86154491|128.6043643|대구광역시 중구청|053-661-2473|대구광역시 중구 달구벌대로440길 27|LG U+|주민센터 내 민원실|Public WiFi Free
대구중구노인상담소|35.872915|128.5927427|대구광역시 중구청|053-661-2473|대구광역시 중구 경상감영1길 43(대안동)|LG U+|상담소 내|Public WiFi Free
경상감영공원|35.87267548|128.59168540000002|대구광역시 중구청|053-661-2473|대구광역시 중구 경상감영길 99|LG U+|공원 주차장 출입계단|Public WiFi Free
대구청소년지원재단|35.869932|128.5901125|대구광역시 중구청|053-661-2473|대구광역시 중구 중앙대로81길 66-5|KT|재단내|Public WiFi Free
봉산문화회관|35.86339742|128.5965618|대구광역시 중구청|053-661-2473|대구광역시 중구 봉산문화길 77|KT|1층 로비, 2층 통로|Public WiFi Free
중부노인복지센터|35.86301407|128.590403|대구광역시 중구청|053-661-2473|대구광역시 중구 명륜로 43-10|KT|복지센터 내|Public WiFi Free
염매시장|35.866636|128.5924688|대구광역시 중구청|053-661-2473|대구광역시 중구 종로 8|KT|상가통로|Public WiFi Free
서문시장|35.86939323|128.5798557|대구광역시 중구청|053-661-2473|대구광역시 중구 큰장로28길 10|KT|야시장, 2지구, 만남의 장소 등|Public WiFi Free
남산2동주민센터|35.864077|128.58953799999998|대구광역시 중구청|053-661-2473|대구광역시 중구 명륜로 27-1|KT|민원실|Public WiFi Free
삼덕동주민센터|35.865549|128.60895829999998|대구광역시 중구청|053-661-2473|대구광역시 중구 달구벌대로447길 72-11|KT|민원실|Public WiFi Free
대구광역시 중구청|35.86932522|128.60615719999998|대구광역시 중구청|053-661-2473|대구광역시 중구 국채보상로139길1|KT|민원실, 로비|Public WiFi Free
3.1운동길|35.87017966|128.58252140000002|대구광역시 중구청|053-661-2473|대구광역시 중구 달성로 56|LG U+|관광해설사의 집 지붕|Public WiFi Free
방천시장|35.861837|128.6060079|대구광역시 중구청|053-661-2473|대구광역시 중구 달구벌대로446길 11|LG U+|공연장 앞 펜스위, 김광석 거리 입구|Public WiFi Free
번개시장|35.875203000000006|128.5974642|대구광역시 중구청|053-661-2473|대구광역시 중구 태평로 177-2|LG U+|시장통로 및 옥상|Public WiFi Free
중구 청소년문화의 집|35.86193170000001|128.597996|대구광역시 중구청|053-661-2473|대구광역시 중구 봉산문화길 40|LG U+|출입구, 복도, 대강당|Public WiFi Free
가톨릭근로자회관노숙인쉼터|35.8686142|128.591492|대구광역시 중구청|053-661-2473|대구광역시 중구 중앙대로77길 40|LG U+|쉼터출입구 천정|Public WiFi Free
남산종합사회복지관|35.86030288|128.5792519|대구광역시 중구청|053-661-2473|대구광역시 중구 남산로7길 80|LG U+|대강당, 복도, 공부방 앞|Public WiFi Free
남산기독교종합사회복지관|35.8650401|128.5905646|대구광역시 중구청|053-661-2473|대구광역시 중구 관덕정길16|LG U+|사무실 및 강당|Public WiFi Free
중구보건소|35.87790436|128.583335|대구광역시 중구청|053-661-2473|대구광역시 중구 태평로 45|KT|로비, 민원실|Public WiFi Free
서문시장 명품프라자 상가|35.8699364|128.580904|대구광역시 중구청|053-661-2473|대구광역시 중구 큰장로28길 27|KT|상가 통로|Public WiFi Free
교동시장|35.8732546|128.59678929999998|대구광역시 중구청|053-661-2473|대구광역시 중구 교동길 40|LG U+|상가통로 및  옥상|Public WiFi Free
남문시장|35.861048|128.59196699999998|대구광역시 중구청|053-661-2473|대구광역시 중구 명륜로 70|SKT|상가통로 및  옥상|Public WiFi Free
서문시장 제5지구|35.868052|128.5784309|대구광역시 중구청|053-661-2473|대구광역시 중구 큰장로26길6|SKT|상가통로|Public WiFi Free
서문시장 제4지구|35.869446999999994|128.58076599999998|대구광역시 중구청|053-661-2473|대구광역시 중구 큰장로28길 28(대신동)|LG U+|상가통로|Public WiFi Free
대명1동행정복지센터|35.84237460000001|128.7243619|대구광역시 남구청|053-664-2474|대구광역시 수성구 성동로 74-16|KT|민원실|Public WiFi Free
대명2동행정복지센터|35.8558089|128.5008392|대구광역시 남구청|053-664-2474|대구광역시 달서구 계대동문로 77 (이곡동)|KT|민원실|Public WiFi Free
대명3동행정복지센터|35.8361317|128.53946770000002|대구광역시 남구청|053-664-2474|대구광역시 달서구 와룡로10안길 11 (본동)|KT|민원실|Public WiFi Free
대명5동행정복지센터|35.8457718|128.505151|대구광역시 남구청|053-664-2474|대구광역시 달서구 성서공단북로59길 13 (갈산동)|KT|민원실|Public WiFi Free
강북노인복지관|35.853412899999995|128.5251887|대구광역시 북구청|053-665-2477|대구광역시 달서구 달구벌대로291길 100 (용산동)|LGU+|복지관내|Public WiFi Free
강북보건지소|35.810582200000006|128.5211776|대구광역시 북구청|053-665-2477|대구광역시 달서구 진천로3길 80 (진천동)|KT|민원실|Public WiFi Free
강북장애인주간보호센터|35.8530407|128.52949850000002|대구광역시 북구청|053-665-2477|대구광역시 달서구 용산로 181 (용산동)|SKT|건물 내|Public WiFi Free
검단동주민센터|35.814063|128.5274149|대구광역시 북구청|053-665-2477|대구광역시 달서구 월배로24길 13 (진천동)|KT|민원실|Public WiFi Free
고성동 주민센터|35.8076078|128.53676409999997|대구광역시 북구청|053-665-2477|대구광역시 달서구 도원로동길 8 (도원동)|KT|민원실|Public WiFi Free
관문동 주민센터|35.822674400000004|128.54814950000002|대구광역시 북구청|053-665-2477|대구광역시 달서구 송현로12안길 38 (송현동)|KT|민원실|Public WiFi Free
관문동주민센터(노곡분소)|35.858059000000004|128.53118600000002|대구광역시 북구청|053-665-2477|대구광역시 달서구 달구벌대로301길 187-11 (용산동)|SKT|민원실|Public WiFi Free
관음동 주민센터|35.8454987|128.5451614|대구광역시 북구청|053-665-2477|대구광역시 달서구 당산동길 9 (성당동)|KT|민원실|Public WiFi Free
관음시장|35.853412899999995|128.5251887|대구광역시 북구청|053-665-2477|대구광역시 달서구 달구벌대로291길 100 (용산동)|SKT|관음시장 일대|Public WiFi Free
국우동 주민센터|35.853412899999995|128.5251887|대구광역시 북구청|053-665-2477|대구광역시 달서구 달구벌대로291길 100 (용산동)|KT|민원실|Public WiFi Free
노원동 주민센터|35.8483546|128.51310719999998|대구광역시 북구청|053-665-2477|대구광역시 달서구 성서동로53안길 45 (갈산동)|KT|민원실|Public WiFi Free
대구북구청|35.8204704|128.55330690000002|대구광역시 북구청|053-665-2477|대구광역시 달서구 앞산순환로 180 (송현동)|LGU+|민원실|Public WiFi Free
산격종합시장|35.807198799999995|128.55944879999998|대구광역시 북구청|053-665-2477|대구광역시 달서구 상화로 420 (상인동)|SKT|산격종합시장 일대|Public WiFi Free
상록뇌성마비복지관|35.8556984|128.5722139|대구광역시 북구청|053-665-2477|대구광역시 달서구 성당로51길 32 (두류동)|SKT|복지관내|Public WiFi Free
서변중앙시장|35.853712|128.5554918|대구광역시 북구청|053-665-2477|대구광역시 달서구 야외음악당로39길 24 (두류동)|SKT|서변중앙시장 일대|Public WiFi Free
선린장애인주간보호센터|35.8510218|128.5422101|대구광역시 북구청|053-665-2477|대구광역시 달서구 감삼북길 119-10 (감삼동)|SKT|건물 내|Public WiFi Free
칠곡공설시장|35.855796999999995|128.5398201|대구광역시 북구청|053-665-2477|대구광역시 달서구 와룡로54길 28 (죽전동)|SKT|칠성시장 일대|Public WiFi Free
팔달신시장|35.8433981|128.5299636|대구광역시 북구청|053-665-2477|대구광역시 달서구 장기로 277 (장기동)|SKT|팔달신시장 일대|Public WiFi Free
안지랑시장|35.83692135|128.5747467|대구광역시 남구청|053-664-2472|대구광역시 남구 대명로36길 63 (대명동)|SKT|시장내|Public WiFi Free
봉덕2동행정복지센터|35.84385779|128.6011101|대구광역시 남구청|053-664-2472|대구광역시 남구 이천로10길 50 (봉덕동)|SKT|민원실|Public WiFi Free
대명9동행정복지센터|35.83727565|128.5793354|대구광역시 남구청|053-664-2472|대구광역시 남구 큰골길 53|SKT|민원실|Public WiFi Free
대덕문화전당|35.8313155|128.5770017|대구광역시 남구청|053-664-2472|대구광역시 남구 앞산순환로 478|SKT|로비|Public WiFi Free
남부시장|35.84142911|128.5778904|대구광역시 남구청|053-664-2472|대구광역시 남구 현충로19길 43 (대명동)|SKT|시장내|Public WiFi Free
남구청소년창작센터|35.85497291|128.58927250000002|대구광역시 남구청|053-664-2472|대구광역시 남구 중앙대로45길 53 (대명동)|SKT|휴게실|Public WiFi Free
남구시니어클럽|35.85338536|128.5997077|대구광역시 남구청|053-664-2472|대구광역시 남구 이천로28길 42-43 (이천동)|SKT|휴게실|Public WiFi Free
대구수화통역센터|35.8445765|128.5883161|대구광역시 남구청|053-664-2472|대구광역시 남구 대명로 297|SKT|휴게실|Public WiFi Free
관문시장|35.83655220000001|128.5573077|대구광역시 남구청|053-664-2472|대구광역시 남구 대명서7길 24-3|SKT|시장내|Public WiFi Free
서부터미널2|35.83682489|128.5578125|대구광역시 남구청|053-664-2472|대구광역시 남구 월배로 496|LGU+|대합실|Public WiFi Free
서부터미널(관문시장 외)|35.83682489|128.5578125|대구광역시 남구청|053-664-2472|대구광역시 남구 월배로 496|LGU+|대합실|Public WiFi Free
대명11동행정복지센터|35.83698958|128.71282140000002|대구광역시 남구청|053-664-2474|대구광역시 수성구 욱수천로 99|KT|민원실|Public WiFi Free
대구시청소년문화의집|35.8235825|128.6083675|대구광역시 남구청|053-664-2474|대구광역시 수성구 파동로51길 56(파동)|SKT|휴게실|Public WiFi Free
대구아동복지센터|35.8495119|128.6094124|대구광역시 남구청|053-664-2474|대구광역시 수성구 신천동로 280(수성동1가)|SKT|휴게실|Public WiFi Free
대덕노인종합복지관|35.8440476|128.7066132|대구광역시 남구청|053-664-2474|대구광역시 수성구 고산로 152(매호동)|SKT|휴게실|Public WiFi Free
대명시장 및 대명신시장|35.8321593|128.61548349999998|대구광역시 남구청|053-664-2474|대구광역시 수성구 들안로9길 56(상동)|SKT|시장내|Public WiFi Free
명덕시장|35.8247805|128.6370564|대구광역시 남구청|053-664-2474|대구광역시 수성구 지범로21길 16(지산동)|SKT|시장내|Public WiFi Free
봉덕신시장|35.843988|128.6381642|대구광역시 남구청|053-664-2474|대구광역시 수성구 청호로57길 10(황금동)|SKT|시장내|Public WiFi Free
서부정류장|35.8415612|128.6252321|대구광역시 남구청|053-664-2474|대구광역시 수성구 청수로31길 45 (황금동)|SKT|대합실|Public WiFi Free
성당시장|35.84738370000001|128.6151041|대구광역시 남구청|053-664-2474|대구광역시 수성구 수성로50길 38 (중동)|SKT|시장내|Public WiFi Free
앞산베네스트|35.8292435|128.6209285|대구광역시 남구청|053-664-2474|대구광역시 수성구 무학로 112 (두산동)|SKT|휴게실|Public WiFi Free
영선시장|35.8557848|128.6170511|대구광역시 남구청|053-664-2474|대구광역시 수성구 들안로 287|SKT|시장내|Public WiFi Free
웰빙전통안마센터|35.8650802|128.618422|대구광역시 남구청|053-664-2474|대구광역시 수성구 들안로 392|SKT|휴게실|Public WiFi Free
대명10동행정복지센터|35.8551058|128.6167525|대구광역시 남구청|053-664-2474|대구광역시 수성구 들안로 281|KT|민원실|Public WiFi Free
대명6동행정복지센터|35.90173199|128.609253|대구광역시 남구청|053-664-2474|대구광역시 북구 동북로31길 30|LGU+|민원실|Public WiFi Free
봉덕1동행정복지센터|35.892232899999996|128.60431100000002|대구광역시 남구청|053-664-2474|대구광역시 북구 대구체육관로 48|LGU+|민원실|Public WiFi Free
봉덕3동행정복지센터|35.893047700000004|128.6301072|대구광역시 남구청|053-664-2474|대구광역시 북구 동북로71길 9-29|LGU+|민원실|Public WiFi Free
서부터미널(관문시장 외)|35.8772404|128.6039645|대구광역시 남구청|053-664-2474|대구광역시 북구 칠성시장로 34|LGU+|대합실|Public WiFi Free
서부터미널2|35.8772404|128.6039645|대구광역시 남구청|053-664-2474|대구광역시 북구 칠성시장로 34|LGU+|대합실|Public WiFi Free
관문시장|35.8903277|128.5812786|대구광역시 남구청|053-664-2474|대구광역시 북구 침산남로13길 16|SKT|시장내|Public WiFi Free
대구수화통역센터|35.8920297|128.5893493|대구광역시 남구청|053-664-2474|대구광역시 북구 성북로 55|SKT|휴게실|Public WiFi Free
남구시니어클럽|35.92148220000001|128.5487684|대구광역시 남구청|053-664-2474|대구광역시 북구 칠곡중앙대로52길 32|SKT|휴게실|Public WiFi Free
남구청소년창작센터|35.9428816|128.57031899999998|대구광역시 남구청|053-664-2474|대구광역시 북구 동암로 180|SKT|휴게실|Public WiFi Free
남부시장|35.82657879999999|128.6070623|대구광역시 남구청|053-664-2474|대구광역시 수성구 파동로51길 26-17(파동)|SKT|시장내|Public WiFi Free
대덕문화전당|35.8228231|128.608831|대구광역시 남구청|053-664-2474|대구광역시 수성구 파동로51길 74(파동)|SKT|로비|Public WiFi Free
대명9동행정복지센터|35.8411411|128.62990449999998|대구광역시 남구청|053-664-2474|대구광역시 수성구 청수로35길 47(황금동)|SKT|민원실|Public WiFi Free
봉덕2동행정복지센터|35.8732722|128.64651170000002|대구광역시 남구청|053-664-2474|대구광역시 수성구 무열로 171(만촌동)|SKT|민원실|Public WiFi Free
안지랑시장|35.8580437|128.630552|대구광역시 남구청|053-664-2474|대구광역시 수성구 달구벌대로 2450(범어동)|SKT|시장내|Public WiFi Free
이천동주민센터|35.861973600000006|128.6113392|대구광역시 남구청|053-664-2474|대구광역시 수성구 신천동로84길 21(수성동4가)|SKT|민원실|Public WiFi Free
건강생활지원센터|35.8357167|128.58372250000002|대구광역시 서구청|053-663-2473|대구광역시 남구 큰골길 146|KT|민원실|Public WiFi Free
서구청(별관)|35.852162299999996|128.5921762|대구광역시 서구청|053-663-2473|대구광역시 남구 중앙대로 46길 15|KT|정보화교육장|Public WiFi Free
이현시장|35.8591203|128.5758889|대구광역시 서구청|053-663-2473|대구광역시 남구 명덕로 46|KT|시장내|Public WiFi Free
중리시장|35.84002858|128.5689557|대구광역시 서구청|053-663-2473|대구광역시 남구 대명복개로4길 166|KT|시장내|Public WiFi Free
내당1동주민센터|35.83624038|128.56063410000002|대구광역시 서구청|053-663-2473|대구광역시 남구 관문시장4길 53|KT|민원실|Public WiFi Free
내당4동주민센터|35.8417305|128.5735803|대구광역시 서구청|053-663-2473|대구광역시 남구 두류공원로 38|KT|민원실|Public WiFi Free
내당2,3동|35.855284600000005|128.5864555|대구광역시 서구청|053-663-2473|대구광역시 남구 명덕로32길 30|SKT|민원실,회의실|Public WiFi Free
비산2,3동|35.8523781|128.5791382|대구광역시 서구청|053-663-2473|대구광역시 남구 명덕로20길 115|KT|민원실|Public WiFi Free
비산1동|35.8432344|128.5878291|대구광역시 서구청|053-663-2473|대구광역시 남구 대명로58길 11|SKT|요가실|Public WiFi Free
비산5동|35.93623885|128.5466992|대구광역시 서구청|053-663-2473|대구광역시 북구 칠곡중앙대로 91길 21|KT|청사입구|Public WiFi Free
비산6동|35.937318|128.5581853|대구광역시 서구청|053-663-2473|대구광역시 북구 대천로 81|SKT|민원실|Public WiFi Free
비산7동|35.9308266|128.562864|대구광역시 서구청|053-663-2473|대구광역시 북구 구암로42길 7|KT|민원실|Public WiFi Free
평리1동|35.9136041|128.62730520000002|대구광역시 서구청|053-663-2473|대구광역시 북구 검단동로4길 16-2|SKT|통신실|Public WiFi Free
평리3동|35.881909|128.5835861|대구광역시 서구청|053-663-2473|대구광역시 북구 고성로31길 21|KT|민원실|Public WiFi Free
평리4동|35.9028168|128.5430417|대구광역시 서구청|053-663-2473|대구광역시 북구 매천로18길 34|SKT|민원실|Public WiFi Free
상중이동|35.906434000000004|128.5627709|대구광역시 서구청|053-663-2473|대구광역시 북구 노곡로 25 (노곡동)|KT|민원실|Public WiFi Free
원대동|35.944241399999996|128.54733290000001|대구광역시 서구청|053-663-2473|대구광역시 북구 관음동로 125|SKT|민원실|Public WiFi Free
새길시장|35.948015500000004|128.57540490000002|대구광역시 서구청|053-663-2473|대구광역시 북구 구리로 188|KT|시장내|Public WiFi Free
서부시장|35.885723999999996|128.5829108|대구광역시 서구청|053-663-2473|대구광역시 북구 옥산로 65|SKT|카페 그자리에|Public WiFi Free
만평시장|35.898421500000005|128.6105282|대구광역시 서구청|053-663-2473|대구광역시 북구 대동로1길 34 (산격동)|SKT|참기름집|Public WiFi Free
반고개무침회골목|35.9210136|128.5961905|대구광역시 서구청|053-663-2473|대구광역시 북구 호국로43길 27 (서변동)|SKT|푸른회식당(반고개의성무침회)|Public WiFi Free
남구 다문화가족지원센터|35.9423746|128.5511118|대구광역시 남구청|053-664-2474|대구광역시 북구 칠곡중앙대로 526 (읍내동)|LGU+|휴게실|Public WiFi Free
남구 보건소|35.8907044|128.5659881|대구광역시 남구청|053-664-2474|대구광역시 북구 팔달로33길 59 (노원동3가)|LGU+|민원실|Public WiFi Free
남구청|35.881628899999995|128.6052294|대구광역시 남구청|053-664-2474|대구광역시 북구 대현남로 25|LGU+|민원실|Public WiFi Free
대구여성의전화부설성(가정)폭력상담소|35.937318|128.5581853|대구광역시 남구청|053-664-2474|대구광역시 북구 대천로 81|LGU+|휴게실|Public WiFi Free
대덕문화전당|35.895353899999996|128.6254941|대구광역시 남구청|053-664-2474|대구광역시 북구 복현로8길 16-5|LGU+|로비|Public WiFi Free
대명4동행정복지센터|35.8918696|128.5889017|대구광역시 남구청|053-664-2474|대구광역시 북구 성북로 49|LGU+|민원실|Public WiFi Free
신애보육원|35.8558869|128.587132|대구광역시 서구청|053-663-2473|대구광역시 남구 명덕로34길 16|SKT|옥상|Public WiFi Free
장애인보호작업장|35.84172005|128.60382959999998|대구광역시 서구청|053-663-2473|대구광역시 남구 중앙대로22길 242|KT|아파트 상가|Public WiFi Free
비산4동주민센터|35.8361751|128.58379779999999|대구광역시 서구청|053-663-2473|대구광역시 남구 큰골길 137|KT|헬스장|Public WiFi Free
평리2동주민센터|35.8583489|128.57717759999997|대구광역시 서구청|053-663-2473|대구광역시 남구 명덕로 60|KT|헬스장|Public WiFi Free
보건소|35.84503658|128.5879741|대구광역시 서구청|053-663-2473|대구광역시 남구 명덕시장길 90|KT|민원실|Public WiFi Free
노인복지관|35.84503170000001|128.6032686|대구광역시 서구청|053-663-2473|대구광역시 남구 봉덕로 115|KT|사무실|Public WiFi Free
북부정류장|35.8367855|128.5577515|대구광역시 서구청|053-663-2473|대구광역시 남구 월배로 496|KT|쉼터공원|Public WiFi Free
구민건강증진센터|35.8502825|128.5731304|대구광역시 서구청|053-663-2473|대구광역시 남구 성당로 196|KT|민원실|Public WiFi Free
보건복지회|35.8882513|128.5632503|대구광역시 서구청|053-663-2473|대구광역시 서구 달서천로57길45|LGU+|사무실|Public WiFi Free
서대구우체국|35.8417075|128.59825759999998|대구광역시 서구청|053-663-2473|대구광역시 남구 이천로 10|KT|민원실|Public WiFi Free
평리5동우체국|35.845791999999996|128.59777240000003|대구광역시 서구청|053-663-2473|대구광역시 남구 이천로 51|KT|민원실|Public WiFi Free
서구청민원실|35.8439533|128.5979457|대구광역시 서구청|053-663-2473|대구광역시 남구 이천로 31|SKT|민원실|Public WiFi Free
농협두류점|35.8459643|128.569528|대구광역시 서구청|053-663-2473|대구광역시 남구 두류공원로 20길 19|KT|민원실|Public WiFi Free
내당역|35.845791999999996|128.59777240000003|대구광역시 서구청|053-663-2473|대구광역시 남구 이천로 51|LGU+|역사|Public WiFi Free
비산5동|35.8367855|128.5577515|대구광역시 서구청|053-663-2473|대구광역시 남구 월배로 496|LGU+|민원실|Public WiFi Free
농협원대동|35.8356279|128.55800349999998|대구광역시 서구청|053-663-2473|대구광역시 남구 대명서7길 24-3|KT|농협|Public WiFi Free
대구의료원|35.844601000000004|128.58833629999998|대구광역시 서구청|053-663-2473|대구광역시 남구 대명로 297|LGU+|민원실|Public WiFi Free
서부도서관|35.85496884|128.5893078|대구광역시 서구청|053-663-2473|대구광역시 남구 중앙대로45길 53 (대명동)|SKT|야외공원|Public WiFi Free
신평리시장|35.8313155|128.5770017|대구광역시 서구청|053-663-2473|대구광역시 남구 앞산순환로 478|SKT|시장내|Public WiFi Free
원대신시장|35.83725432|128.5790384|대구광역시 서구청|053-663-2473|대구광역시 남구 큰골길 53|SKT|시장내|Public WiFi Free
서구시장|35.836592200000005|128.5748682|대구광역시 서구청|053-663-2473|대구광역시 남구 대명로36길 63 (대명동)|SKT|시장내|Public WiFi Free
청소년수련관|35.853705299999994|128.599446|대구광역시 서구청|053-663-2473|대구광역시 남구 이천로28길 18 (이천동)|SKT|풋살경기장|Public WiFi Free
북부정류장|35.8589532|128.5517595|대구광역시 서구청|053-663-2473|대구광역시 서구 서대구로3길46|LGU+|쉼터공원|Public WiFi Free
서구문화회관|35.875830799999996|128.5747396|대구광역시 서구청|053-663-2473|대구광역시 서구 국채보상로81길43|SKT|1층 사무실|Public WiFi Free
서구청소년수련관|35.8811578|128.5690168|대구광역시 서구청|053-663-2473|대구광역시 서구 북비산로65길18|SKT|지하 통신실|Public WiFi Free
서구어린이도서관|35.8763083|128.56910390000002|대구광역시 서구청|053-663-2473|대구광역시 서구 문화로67길3|SKT|통신실|Public WiFi Free
중리동우체국|35.8756065|128.5632981|대구광역시 서구청|053-663-2473|대구광역시 서구 문화로280|KT|민원실|Public WiFi Free
서부도서관|35.8673581|128.5568295|대구광역시 서구청|053-663-2473|대구광역시 서구 국채보상로46길37-3|SKT|휴게실, 디지털자료실|Public WiFi Free
평리3동우체국|35.867931299999995|128.5442553|대구광역시 서구청|053-663-2473|대구광역시 서구 평리로35길90-6|KT|우체국|Public WiFi Free
서구청|35.8645979|128.5716777|대구광역시 서구청|053-663-2473|대구광역시 서구 달서로4길9-34|KT|민원실|Public WiFi Free
원고개시장|35.8722558|128.5576101|대구광역시 서구청|053-663-2473|대구광역시 서구 국채보상로49길12|SKT|대구유통 매장|Public WiFi Free
종합자원봉사센터|35.8854506|128.5747371|대구광역시 서구청|053-663-2473|대구광역시 서구 달서로54길6|KT|사무실|Public WiFi Free
서구문화회관|35.873636|128.5457716|대구광역시 서구청|053-663-2473|대구광역시 서구 문화로122|SKT|가로등|Public WiFi Free
종합사회복지관|35.8802417|128.55150509999999|대구광역시 서구청|053-663-2473|대구광역시 서구 북비산로33길9-2|SKT|각층 복도천장|Public WiFi Free
제일종합사회복지관|35.8698013|128.5743007|대구광역시 서구청|053-663-2473|대구광역시 서구 국채보상로78길29-4|SKT|각층 복도천장|Public WiFi Free
원대시장|35.871802200000005|128.55922040000002|대구광역시 서구청|053-663-2473|대구광역시 서구 국채보상로257|KT|시장내|Public WiFi Free
대평리시장|35.8842282|128.5552275|대구광역시 서구청|053-663-2473|대구광역시 서구 서대구로295|KT|시장내|Public WiFi Free
중평시장|35.8607456|128.5514497|대구광역시 서구청|053-663-2473|대구광역시 서구 서대구로7길46|KT|시장내|Public WiFi Free
소망모자원|35.871802200000005|128.55922040000002|대구광역시 서구청|053-663-2473|대구광역시 서구 국채보상로257|SKT|사무실|Public WiFi Free
대구북부고용센터|35.8702972|128.5478372|대구광역시 서구청|053-663-2473|대구광역시 서구 국채보상로31길12|KT|민원실|Public WiFi Free
방촌동주민센터|35.8724248|128.70242009999998|대구광역시 동구청|053-662-2472|대구광역시 동구 율하동로 143(신기동)|KT|민원실|Public WiFi Free
안심1동행정복지센터|35.871728600000004|128.629306|대구광역시 동구청|053-662-2472|대구광역시 동구 동부로30길 61-7(신천동)|KT|민원실|Public WiFi Free
도평동주민센터|35.8811506|128.6152753|대구광역시 동구청|053-662-2472|대구광역시 동구 아양로 10(신암동)|KT|민원실|Public WiFi Free
공산동주민센터|35.871089700000006|128.62495900000002|대구광역시 동구청|053-662-2472|대구광역시 동구 동대구로 457|KT|민원실|Public WiFi Free
방촌현대시장|35.872828999999996|128.62483419999998|대구광역시 동구청|053-662-2472|대구광역시 동구 동대구로 475|LGU+|전체|Public WiFi Free
효목시장|35.8746811|128.6248621|대구광역시 동구청|053-662-2472|대구광역시 동구 동대구로 495|LGU+|전체|Public WiFi Free
반야월종합시장|35.8810648|128.6513905|대구광역시 동구청|053-662-2472|대구광역시 동구 효동로2길 27|LGU+|전체|Public WiFi Free
해안동행정복지센터|35.8802662|128.6525524|대구광역시 동구청|053-662-2472|대구광역시 동구 효동로2길 39|LGU+|민원실|Public WiFi Free
신천4동주민센터|35.882923100000006|128.64925490000002|대구광역시 동구청|053-662-2472|대구광역시 동구 효동로6길 58|LGU+|민원실|Public WiFi Free
평화시장|35.8755605|128.6290639|대구광역시 동구청|053-662-2472|대구광역시 동구 동부로30길 15|SKT|전체|Public WiFi Free
동대구로|35.872310299999995|128.6290703|대구광역시 동구청|053-662-2472|대구광역시 동구 동부로30길 53|KT|전체|Public WiFi Free
동대구로|35.88095084|128.7341237|대구광역시 동구청|053-662-2472|대구광역시 동구 동내로 117|KT|전체|Public WiFi Free
동대구로|35.87222979999999|128.5747977|대구광역시 동구청|053-662-2472|대구광역시 서구 국채보상로399|KT|전체|Public WiFi Free
동대구로|35.8722732|128.5455773|대구광역시 동구청|053-662-2472|대구광역시 서구 당산로403|KT|전체|Public WiFi Free
동대구로|35.885748|128.5788694|대구광역시 동구청|053-662-2472|대구광역시 서구 옥산로6길9|KT|전체|Public WiFi Free
동대구로|35.878009000000006|128.5589495|대구광역시 동구청|053-662-2472|대구광역시 서구 문화로49길25|KT|전체|Public WiFi Free
동대구로|35.8653967|128.55393130000002|대구광역시 동구청|053-662-2472|대구광역시 서구 서대구로17길16|KT|전체|Public WiFi Free
동촌유원지|35.858787|128.5567374|대구광역시 동구청|053-662-2472|대구광역시 서구 서대구로9|자가망|전체|Public WiFi Free
동촌유원지|35.8722732|128.5455773|대구광역시 동구청|053-662-2472|대구광역시 서구 당산로403|자가망|전체|Public WiFi Free
동촌유원지|35.8743119|128.5463842|대구광역시 동구청|053-662-2472|대구광역시 서구 문화로123|자가망|전체|Public WiFi Free
동촌유원지|35.8722558|128.5576101|대구광역시 동구청|053-662-2472|대구광역시 서구 국채보상로49길12|자가망|전체|Public WiFi Free
동촌유원지|35.871802200000005|128.55922040000002|대구광역시 동구청|053-662-2472|대구광역시 서구 국채보상로257|자가망|전체|Public WiFi Free
터미널먹거리촌|35.8668266|128.555208|대구광역시 동구청|053-662-2472|대구광역시 서구 서대구로97|자가망|전체|Public WiFi Free
터미널먹거리촌|35.86962020000001|128.5488325|대구광역시 동구청|053-662-2472|대구광역시 서구 국채보상로161-1|자가망|전체|Public WiFi Free
터미널먹거리촌|35.8595566|128.561413|대구광역시 동구청|053-662-2472|대구광역시 서구 달구벌대로1797|자가망|전체|Public WiFi Free
동대구역 광장|35.8885948|128.5683954|대구광역시 동구청|053-662-2472|대구광역시 서구 팔달로170|자가망|전체|Public WiFi Free
혁신도시 중앙공원|35.8596025|128.5405922|대구광역시 동구청|053-662-2472|대구광역시 서구 평리로157|자가망|전체|Public WiFi Free
효목2동행정복지센터|35.940087299999995|128.6441372|대구광역시 동구청|053-662-2472|대구광역시 동구 팔공로91길 9(지묘동)|KT|민원실|Public WiFi Free
동촌동행정복지센터|35.882667|128.6657517|대구광역시 동구청|053-662-2472|대구광역시 동구 방촌로125(방촌동)|KT|민원실|Public WiFi Free
신암4동 주민센터|35.87448676|128.6153095|대구광역시 동구청|053-662-2472|대구광역시 동구 동부로5길 10(신천동)|LGU+|민원실|Public WiFi Free
공항시장|35.8781522|128.6412466|대구광역시 동구청|053-662-2472|대구광역시 동구 화랑로25길 45(효목동)|KT|전체|Public WiFi Free
송라시장|35.880027|128.6652611|대구광역시 동구청|053-662-2472|대구광역시 동구 동촌로48길 26(방촌동)|KT|전체|Public WiFi Free
신천3동주민센터|35.870390500000006|128.7021131|대구광역시 동구청|053-662-2472|대구광역시 동구 율하동로 121(신기동)|KT|민원실|Public WiFi Free
영유아플라자|35.8704136|128.6150273|대구광역시 동구청|053-662-2472|대구광역시 동구 국채보상로159길 41(신천동)|KT|전체|Public WiFi Free
신암5동 주민센터|35.884286200000005|128.6163506|대구광역시 동구청|053-662-2472|대구광역시 동구 아양로7길 27 (신암동)|KT|민원실|Public WiFi Free
신천1·2동 주민센터|35.8799695|128.61270679999998|대구광역시 동구청|053-662-2472|대구광역시 동구 신성로 56(신암동)|KT|민원실|Public WiFi Free
신암1동 주민센터|35.8850364|128.6293294|대구광역시 동구청|053-662-2472|대구광역시 동구 신암남로23길 53(신암동)|LGU+|민원실|Public WiFi Free
신암2동 주민센터|35.8962467|128.63842160000002|대구광역시 동구청|053-662-2472|대구광역시 동구 해동로3길 19-5(지저동)|LGU+|민원실|Public WiFi Free
볼로봉무동 주민센터|35.888095799999995|128.6512343|대구광역시 동구청|053-662-2472|대구광역시 동구 동촌로 79 (검사동)|SKT|민원실|Public WiFi Free
지저동 주민센터|35.8705213|128.7108358|대구광역시 동구청|053-662-2472|대구광역시 동구 안심로49길 98 (서호동)|KT|민원실|Public WiFi Free
동구 보건소|35.88161420000001|128.6449448|대구광역시 동구청|053-662-2472|대구광역시 동구 화랑로41길 46|KT|전체|Public WiFi Free
안심3·4동 주민센터|35.9019763|128.6300661|대구광역시 동구청|053-662-2472|대구광역시 동구 공항로31길 9-6 (불로동)|KT|민원실|Public WiFi Free
효목1동 주민센터|35.8867281|128.6356637|대구광역시 동구청|053-662-2472|대구광역시 동구 아양로 207 (신암동)|SKT|민원실|Public WiFi Free
동구노인복지회관|35.8862005|128.6533675|대구광역시 동구청|053-662-2472|대구광역시 동구 해동로 219 (검사동)|KT|전체|Public WiFi Free
팔공노인복지회관|35.8744148|128.63965729999998|대구광역시 동구청|053-662-2472|대구광역시 동구 효목로 14 (효목동)|KT|전체|Public WiFi Free
대구SOS어린이마을|35.8866371|128.6339606|대구광역시 동구청|053-662-2472|대구광역시 동구 아양로37길 14 (신암동)|KT|전체|Public WiFi Free
동구시장|35.8795724|128.6231473|대구광역시 동구청|053-662-2472|대구광역시 동구 신암남로 67 (신암동)|LGU+|전체|Public WiFi Free
동서시장|35.91040163|128.6419419|대구광역시 동구청|053-662-2472|대구광역시 동구 팔공로26길 9-1 (불로동)|LGU+|전체|Public WiFi Free
신암3동 주민센터|35.8750929|128.634501|대구광역시 동구청|053-662-2472|대구광역시 동구 효신로 34(효목동)|LGU+|민원실|Public WiFi Free
불로전통시장|35.884890399999996|128.63207830000002|대구광역시 동구청|053-662-2472|대구광역시 동구 신암남로 175-1 (신암동)|KT|민원실|Public WiFi Free
팔공정보문화센터|35.889755900000004|128.6330629|대구광역시 동구청|053-662-2472|대구광역시 동구 아양로37길 92(신암동)|KT|전체|Public WiFi Free
아양아트센터|35.8906223|128.6311303|대구광역시 동구청|053-662-2472|대구광역시 동구 동북로 71길 33|KT, LGU+|전체|Public WiFi Free
신암공원관리사무소|35.85996346|128.6928275|대구광역시 동구청|053-662-2472|대구광역시 동구 금호강변로 278 (율하동)|KT|전체|Public WiFi Free
율하체육공원|35.8862253|128.6241342|대구광역시 동구청|053-662-2472|대구광역시 동구 큰고개로 23 (신암동)|KT|전체|Public WiFi Free
봉무공원|35.8901537|128.6216009|대구광역시 동구청|053-662-2472|대구광역시 동구 신암북로11길 54(신암동)|KT|전체|Public WiFi Free
해오름재가노인복지센터|35.9103078|128.6393123|대구광역시 동구청|053-662-2472|대구광역시 동구 팔공로25길 16 (불로동)|KT|전체|Public WiFi Free
동부도서관|35.896338899999996|128.6387115|대구광역시 동구청|053-662-2472|대구광역시 동구 해동로3길 20 (지저동)|KT|전체|Public WiFi Free
가톨릭근로자회관노숙인쉼터|35.8686142|128.5914061|대구광역시 중구청|053-661-2474|대구광역시 중구 중앙대로77길 40|LG U+|쉼터출입구 천정|Public WiFi Free
중구 청소년문화의 집|35.86193170000001|128.5979877|대구광역시 중구청|053-661-2474|대구광역시 중구 봉산문화길 40|LG U+|출입구, 복도, 대강당|Public WiFi Free
번개시장|35.875235100000005|128.5974642|대구광역시 중구청|053-661-2474|대구광역시 중구 태평로 177-2|LG U+|시장통로 및 옥상|Public WiFi Free
방천시장|35.8618339|128.6060079|대구광역시 중구청|053-661-2474|대구광역시 중구 달구벌대로446길 11|LG U+|공연장 앞 펜스위, 김광석 거리 입구|Public WiFi Free
3.1운동길|35.86895629|128.5831757|대구광역시 중구청|053-661-2474|대구광역시 중구 달성로 56|LG U+|관광해설사의 집 지붕|Public WiFi Free
대구광역시 중구청|35.8692838|128.6060779|대구광역시 중구청|053-661-2474|대구광역시 중구 국채보상로139길1|KT|민원실, 로비|Public WiFi Free
삼덕동주민센터|35.8655468|128.60895829999998|대구광역시 중구청|053-661-2474|대구광역시 중구 달구벌대로447길 72-11|KT|민원실|Public WiFi Free
남산2동주민센터|35.864077|128.58957420000002|대구광역시 중구청|053-661-2474|대구광역시 중구 명륜로 27-1|KT|민원실|Public WiFi Free
서문시장|35.8694078|128.5798557|대구광역시 중구청|053-661-2474|대구광역시 중구 큰장로28길 10|KT|야시장, 2지구, 만남의 장소 등|Public WiFi Free
염매시장|35.866636|128.5924688|대구광역시 중구청|053-661-2474|대구광역시 중구 종로 8|KT|상가통로|Public WiFi Free
중부노인복지센터|35.862995700000006|128.59042209999998|대구광역시 중구청|053-661-2474|대구광역시 중구 명륜로 43-10|KT|복지센터 내|Public WiFi Free
봉산문화회관|35.863136700000005|128.5965618|대구광역시 중구청|053-661-2474|대구광역시 중구 봉산문화길 77|KT|1층 로비, 2층 통로|Public WiFi Free
대구청소년지원재단|35.869932|128.5901125|대구광역시 중구청|053-661-2474|대구광역시 중구 중앙대로81길 66-5|KT|재단내|Public WiFi Free
경상감영공원|35.8722155|128.59222240000003|대구광역시 중구청|053-661-2474|대구광역시 중구 경상감영길 99|LG U+|공원 주차장 출입계단|Public WiFi Free
대구중구노인상담소|35.8729421|128.5927427|대구광역시 중구청|053-661-2474|대구광역시 중구 경상감영1길 43|LG U+|상담소 내|Public WiFi Free
대봉1동주민센터|35.8616393|128.6043643|대구광역시 중구청|053-661-2474|대구광역시 중구 달구벌대로440길 27|LG U+|주민센터 내 민원실|Public WiFi Free
대봉2동주민센터|35.8581536|128.5997619|대구광역시 중구청|053-661-2474|대구광역시 중구 대봉로45길 29|LG U+|주민센터 내 민원실|Public WiFi Free
대신동주민센터|35.86558207|128.5763499|대구광역시 중구청|053-661-2474|대구광역시 중구 달구벌대로389길 50|LG U+|주민센터 내 민원실|Public WiFi Free
동부시장|35.8692709|128.5980362|대구광역시 중구청|053-661-2474|대구광역시 중구 동성로3길 87|LG U+|시장통로|Public WiFi Free
성내1동주민센터|35.8567598|128.59783149999998|대구광역시 중구청|053-661-2474|대구광역시 중구 명륜로26길 77-2|LG U+|주민센터 내 민원실|Public WiFi Free
어르신마을노인복지센터|35.8797836|128.65196029999998|대구광역시 중구청|053-661-2474|대구광역시 동구 효동로2길 24|LG U+|복지센터 내|Public WiFi Free
중구시니어클럽|35.8797836|128.65196029999998|대구광역시 중구청|053-661-2474|대구광역시 동구 효동로2길 24 (효목동)|LG U+|사무실 내|Public WiFi Free
서문시장 제5지구|35.8680879|128.5784309|대구광역시 중구청|053-661-2474|대구광역시 중구 큰장로26길6|SKT|상가통로|Public WiFi Free
남문시장|35.861070899999994|128.5919889|대구광역시 중구청|053-661-2474|대구광역시 중구 명륜로 70|SKT|상가통로 및  옥상|Public WiFi Free
교동시장|35.8732546|128.59678929999998|대구광역시 중구청|053-661-2474|대구광역시 중구 교동길 40|LG U+|상가통로 및  옥상|Public WiFi Free
서문시장 명품프라자 상가|35.8699364|128.5808982|대구광역시 중구청|053-661-2474|대구광역시 중구 큰장로28길 27|KT|상가 통로|Public WiFi Free
중구보건소|35.8778703|128.58338700000002|대구광역시 중구청|053-661-2474|대구광역시 중구 태평로 45|KT|로비, 민원실|Public WiFi Free
남산기독교종합사회복지관|35.8650401|128.5905646|대구광역시 중구청|053-661-2474|대구광역시 중구 관덕정길16|LG U+|사무실 및 강당|Public WiFi Free
남산종합사회복지관|35.8599331|128.579677|대구광역시 중구청|053-661-2474|대구광역시 중구 남산로7길 80|LG U+|대강당, 복도, 공부방 앞|Public WiFi Free
태전공원|35.931636|128.546161|대구광역시 북구청|000-0000-0000|대구광역시 북구 칠곡중앙대로 397-20|KT(구청 자체 설치)|공원 내|행복북구
함지노인복지관|35.942882|128.57031899999998|대구광역시 북구청|053-665-2477|대구광역시 북구 동암로 180|SKT|건물 내|-
태전중앙시장|35.921654|128.544899|대구광역시 북구청|053-665-2477|대구광역시 북구 태전로 15|LGU+|태전중앙시장 일대|-
태전2동주민센터|35.921482|128.548768|대구광역시 북구청|053-665-2477|대구광역시 북구 칠곡중앙대로52길 32|KT|민원실|-
태전1동주민센터|35.924093|128.543332|대구광역시 북구청|053-665-2477|대구광역시 북구 태전로7길 10-24|KT|민원실|-
침산3동주민센터|35.89203|128.589349|대구광역시 북구청|053-665-2477|대구광역시 북구 성북로 55|KT|민원실|-
침산2동 주민센터|35.887264|128.596993|대구광역시 북구청|053-665-2477|대구광역시 북구 침산남로 195|KT|민원실|-
침산1동주민센터|35.890328000000004|128.581279|대구광역시 북구청|053-665-2477|대구광역시 북구 침산남로13길 16|KT|민원실|-
칠성시장 (경명)|35.87724|128.603964|대구광역시 북구청|053-665-2477|대구광역시 북구 칠성시장로 34|KT|칠성시장 일대|-
칠성시장 (청과)|35.87724|128.603964|대구광역시 북구청|053-665-2477|대구광역시 북구 칠성시장로 34|KT|칠성시장 일대|-
칠성시장 (삼성)|35.87724|128.603964|대구광역시 북구청|053-665-2477|대구광역시 북구 칠성시장로 34|KT|칠성시장 일대|-
칠성시장|35.87724|128.603964|대구광역시 북구청|053-665-2477|대구광역시 북구 칠성시장로 34|KT|칠성시장 일대|-
성보재활원|35.893048|128.630107|대구광역시 북구청|053-665-2477|대구광역시 북구 동북로71길 9-29|KT|건물 내|-
성림효사랑 실버타운|35.88564|128.60259|대구광역시 북구청|053-665-2477|대구광역시 북구 신천동로 740|KT|건물 내|-
산격4동주민센터|35.892233000000004|128.60431100000002|대구광역시 북구청|053-665-2477|대구광역시 북구 대구체육관로 48|KT|민원실|-
산격3동주민센터|35.893546|128.608312|대구광역시 북구청|053-665-2477|대구광역시 북구 대학로15길 16|KT|민원실|-
산격2동주민센터|35.901732|128.609253|대구광역시 북구청|053-665-2477|대구광역시 북구 동북로31길 30|KT|민원실|-
산격1동주민센터|35.892619|128.594664|대구광역시 북구청|053-665-2477|대구광역시 북구 연암로 88|KT|민원실|-
북구보건소|35.891870000000004|128.588902|대구광역시 북구청|053-665-2477|대구광역시 북구 성북로 49|KT|민원실|-
복현2동주민센터|35.895354|128.625494|대구광역시 북구청|053-665-2477|대구광역시 북구 복현로8길 16-5|KT|민원실|-
무태조야동 분소|35.910078999999996|128.57626399999998|대구광역시 북구청|053-665-2477|대구광역시 북구 조야로 31-1|KT|민원실|-
동천동 주민센터|35.937318|128.558185|대구광역시 북구청|053-665-2477|대구광역시 북구 대천로 81|KT|민원실|-
동대구시장|35.881182|128.608952|대구광역시 북구청|053-665-2477|대구광역시 북구 대현로20길 30|KT|동대구시장 일대|-
대현동주민센터|35.881629|128.605229|대구광역시 북구청|053-665-2477|대구광역시 북구 대현남로 25|KT|민원실|-
대불노인복지관|35.898666999999996|128.61692|대구광역시 북구청|053-665-2477|대구광역시 북구 검단로 8-14|SKT|복지관내|-
팔달신시장|35.890704|128.56598799999998|대구광역시 북구청|053-665-2477|대구광역시 북구 팔달로33길 59 (노원동3가)|SKT|팔달신시장 일대|-
칠곡공설시장|35.942375|128.55111200000002|대구광역시 북구청|053-665-2477|대구광역시 북구 칠곡중앙대로 526 (읍내동)|SKT|칠성시장 일대|-
선린장애인주간보호센터|35.937826|128.545502|대구광역시 북구청|053-665-2477|대구광역시 북구 관음동로9길 10-25 (관음동)|SKT|건물 내|-
서변중앙시장|35.921014|128.596191|대구광역시 북구청|053-665-2477|대구광역시 북구 호국로43길 27 (서변동)|SKT|서변중앙시장 일대|-
상록뇌성마비복지관|35.906302000000004|128.602742|대구광역시 북구청|053-665-2477|대구광역시 북구 연암로42길 77 (산격동)|SKT|복지관내|-
산격종합시장|35.898422|128.61052800000002|대구광역시 북구청|053-665-2477|대구광역시 북구 대동로1길 34 (산격동)|SKT|산격종합시장 일대|-
대구북구청|35.885723999999996|128.58291100000002|대구광역시 북구청|053-665-2477|대구광역시 북구 옥산로 65|LGU+|민원실|-
노원동 주민센터|35.890138|128.576231|대구광역시 북구청|053-665-2477|대구광역시 북구 노원로10길 166|KT|민원실|-
국우동 주민센터|35.948015999999996|128.57540500000002|대구광역시 북구청|053-665-2477|대구광역시 북구 구리로 188|KT|민원실|-
관음시장|35.944911|128.547226|대구광역시 북구청|053-665-2477|대구광역시 북구 관음중앙로28길 1 (관음동)|SKT|관음시장 일대|-
관문동 주민센터|35.902817|128.54304199999999|대구광역시 북구청|053-665-2477|대구광역시 북구 매천로18길 34|KT|민원실|-
고성동 주민센터|35.881909|128.583586|대구광역시 북구청|053-665-2477|대구광역시 북구 고성로31길 21|KT|민원실|-
검단동주민센터|35.913604|128.627305|대구광역시 북구청|053-665-2477|대구광역시 북구 검단동로4길 16-2|KT|민원실|-
강북장애인주간보호센터|35.930827|128.562864|대구광역시 북구청|053-665-2477|대구광역시 북구 구암로42길 7|SKT|건물 내|-
강북보건지소|35.937318|128.558185|대구광역시 북구청|053-665-2477|대구광역시 북구 대천로 81|KT|민원실|-
강북노인복지관|35.936239|128.546699|대구광역시 북구청|053-665-2477|대구광역시 북구 칠곡중앙대로 91길 21|LGU+|복지관내|-
관문동주민센터(노곡분소)|35.906434000000004|128.562771|대구광역시 북구청|053-665-2477|대구광역시 북구 노곡로 25 (노곡동)|SKT|민원실|-
관음동 주민센터|35.944241|128.547333|대구광역시 북구청|053-665-2477|대구광역시 북구 관음동로 125|KT|민원실|-
본리도서관|35.84055483|128.5418122|대구광역시 달서구청|053-667-2471|대구광역시 달서구 당산로 37-25|SKT|전체|-
대구광역시립두류도서관|35.85261008|128.56043870000002|대구광역시 달서구청|053-667-2471|대구광역시 달서구 공원순환로 8|SKT|전체|-
달서구치매안심센터|35.842085|128.5376247|대구광역시 달서구청|053-667-2471|대구광역시 달서구 와룡로 106|SKT|민원실|-
성서도서관|35.85741306|128.5144577|대구광역시 달서구청|053-667-2471|대구광역시 달서구 선원남로 129|SKT|전체|-
달서영어도서관|35.83126387|128.555219|대구광역시 달서구청|053-667-2471|대구광역시 달서구 중흥로6길 10|SKT|전체|-
서문시장 제4지구|35.86946470000001|128.5807674|대구광역시 중구청|053-661-2474|대구광역시 중구 큰장로28길 28|LG U+|상가통로|Public WiFi Free
원고개도서관|35.88187546|128.5707951|대구광역시 서구청|053-663-2477|대구광역시 서구 달서로43길 12|LGU+|문화강좌실1 천정|public Wifi
달성토성|35.87530476|128.5762635|대구광역시 서구청|053-663-2477|대구광역시 서구 국채보상로81안길 18|LGU+|사무실 중앙 천정|public Wifi
서구청민원실|35.87232184|128.5592911|대구광역시 서구청|053-663-2477|대구광역시 서구 국채보상로257|LGU+|1층 민원실 5번 창구 위 선반|public Wifi
서구청대강의실|35.87232184|128.5592911|대구광역시 서구청|053-663-2477|대구광역시 서구 국채보상로257|LGU+|4층 대강의실 입구 및 중앙 천정|public Wifi
평리6동주민센터|35.87519337|128.5482485|대구광역시 서구청|053-663-2477|대구광역시 서구 당산로86길 13|LGU+|2층 출입문 및 반대쪽 천정|public Wifi
평리4동|35.867351|128.5568295|대구광역시 서구청|053-663-2477|대구광역시 서구 국채보상로46길 37-3|SKT|민원실|public Wifi
상중이동|35.867927|128.54424699999998|대구광역시 서구청|053-663-2477|대구광역시 서구 평리로35길 90-6|KT|민원실|public Wifi
원대동|35.886807|128.574408|대구광역시 서구청|053-663-2477|대구광역시 서구 달서로55길 5|SKT|민원실|public Wifi
새길시장|35.864585999999996|128.571653|대구광역시 서구청|053-663-2477|대구광역시 서구 달서로4길 9-34|KT|시장내|public Wifi
서부시장|35.87456227|128.57215390000002|대구광역시 서구청|053-663-2477|대구광역시 서구 달서로28길 9-2|SKT|카페 그자리에|public Wifi
만평시장|35.888253000000006|128.563242|대구광역시 서구청|053-663-2477|대구광역시 서구 달서천로57길 45|SKT|참기름집|public Wifi
반고개무침회골목|35.8619496|128.56371529999998|대구광역시 서구청|053-663-2477|대구광역시 서구 서대구로8길 64|SKT|푸른회식당(반고개의성무침회)|public Wifi
원대동주민센터|35.88680262|128.5743962|대구광역시 서구청|053-663-2477|대구광역시 서구 달서로55길 5|LGU+|민원실|public Wifi
평리2동주민센터|35.8712199|128.563645|대구광역시 서구청|053-663-2477|대구광역시 서구 국채보상로60길 6|LGU+|민원실|public Wifi
꼼지락발전소|35.86551370000001|128.5486315|대구광역시 서구청|053-663-2477|대구광역시 서구 국채보상로34길 48-1|LGU+|1층 출입구 천정|public Wifi
평리4동주민센터|35.86734019|128.5567977|대구광역시 서구청|053-663-2477|대구광역시 서구 국채보상로46길 37-3|LGU+|2층 헬스장 출입문 천정|public Wifi
비원도서관|35.88609089|128.5692882|대구광역시 서구청|053-663-2477|대구광역시 서구 달서천로61안길 10|LGU+|2층 종합자료실 안 중앙 천정|public Wifi
어린이도서관|35.87428026|128.5463795|대구광역시 서구청|053-663-2477|대구광역시 서구 문화로123|LGU+|2층 어린이 도서실 내 노트북존 천정|public Wifi
비산2,3동주민센터|35.87580089|128.57471429999998|대구광역시 서구청|053-663-2477|대구광역시 서구 국채보상로81길 43|LGU+|1층 민원실 내 천정|public Wifi
비산도서관|35.86857764|128.5733137|대구광역시 서구청|053-663-2477|대구광역시 서구 달서로14길 13|LGU+|2층 도서관 중앙 천정|public Wifi
평리5동주민센터|35.86952224|128.5477751|대구광역시 서구청|053-663-2477|대구광역시 서구 국채보상로151|LGU+|1층 민원실 내 중앙 천정|public Wifi
평리1동|35.8756065|128.563288|대구광역시 서구청|053-663-2477|대구광역시 서구 문화로 280|SKT|통신실|public Wifi
평리3동|35.875914|128.561304|대구광역시 서구청|053-663-2477|대구광역시 서구 문화로 261|KT|민원실|public Wifi
종합자원봉사센터|35.872246999999994|128.574764|대구광역시 서구청|053-663-2477|대구광역시 서구 국채보상로 399|KT|사무실|public Wifi
서구문화회관|35.8722732|128.545527|대구광역시 서구청|053-663-2477|대구광역시 서구 당산로 403|SKT|가로등|public Wifi
종합사회복지관|35.861011|128.563333|대구광역시 서구청|053-663-2477|대구광역시 서구 달구벌대로365길 3|SKT|각층 복도천장|public Wifi
제일종합사회복지관|35.885737|128.5788694|대구광역시 서구청|053-663-2477|대구광역시 서구 옥산로6길 9|SKT|각층 복도천장|public Wifi
원대시장|35.883052|128.578038|대구광역시 서구청|053-663-2477|대구광역시 서구 달서천로83길 13|KT|시장내|public Wifi
대평리시장|35.878009000000006|128.55893500000002|대구광역시 서구청|053-663-2477|대구광역시 서구 문화로49길 25|KT|시장내|public Wifi
중평시장|35.865386|128.553921|대구광역시 서구청|053-663-2477|대구광역시 서구 서대구로17길 16|KT|시장내|public Wifi
소망모자원|35.8664126|128.52562220000002|대구광역시 서구청|053-663-2477|대구광역시 서구 새방로25길 46|SKT|사무실|public Wifi
내당2,3동|35.867274|128.574556|대구광역시 서구청|053-663-2477|대구광역시 서구 큰장로15길 11-1|SKT|민원실,회의실|public Wifi
비산2,3동|35.875814|128.574717|대구광역시 서구청|053-663-2477|대구광역시 서구 국채보상로81길 43|KT|민원실|public Wifi
비산1동|35.881144|128.569002|대구광역시 서구청|053-663-2477|대구광역시 서구 북비산로65길 18|SKT|요가실|public Wifi
비산5동|35.886106|128.570085|대구광역시 서구청|053-663-2477|대구광역시 서구 달서천로61안길 17|KT|청사입구|public Wifi
비산6동|35.8763083|128.56910390000002|대구광역시 서구청|053-663-2477|대구광역시 서구 문화로67길 3|SKT|민원실|public Wifi
비산7동|35.888001700000004|128.553547|대구광역시 서구청|053-663-2477|대구광역시 서구 염색공단로5길 4|KT|민원실|public Wifi
서부도서관|35.8722558|128.5576101|대구광역시 서구청|053-663-2477|대구광역시 서구 국채보상로49길 12|SKT|야외공원|public Wifi
신평리시장|35.8681107|128.5607115|대구광역시 서구청|053-663-2477|대구광역시 서구 국채보상로52길 33|SKT|시장내|public Wifi
원대신시장|35.885434000000004|128.574731|대구광역시 서구청|053-663-2477|대구광역시 서구 달서로54길 6|SKT|시장내|public Wifi
서구시장|35.8737833|128.555707|대구광역시 서구청|053-663-2477|대구광역시 서구 국채보상로45길 33|SKT|시장내|public Wifi
청소년수련관|35.873609|128.5457716|대구광역시 서구청|053-663-2477|대구광역시 서구 문화로 122|SKT|풋살경기장|public Wifi
신애보육원|35.8802417|128.55150509999999|대구광역시 서구청|053-663-2477|대구광역시 서구 북비산로33길 9-2|SKT|옥상|public Wifi
장애인보호작업장|35.865331700000006|128.55725379999998|대구광역시 서구청|053-663-2477|대구광역시 서구 국채보상로46길 57 (동서3차 아파트상가)|KT|아파트 상가|public Wifi
비산4동주민센터|35.8698013|128.5743007|대구광역시 서구청|053-663-2477|대구광역시 서구 국채보상로78길 29-4|KT|헬스장|public Wifi
평리2동주민센터|35.871224|128.5636881|대구광역시 서구청|053-663-2477|대구광역시 서구 국채보상로60길 6|KT|헬스장|public Wifi
보건소|35.871802200000005|128.55922040000002|대구광역시 서구청|053-663-2477|대구광역시 서구 국채보상로 257|KT|민원실|public Wifi
노인복지관|35.8755091|128.564076|대구광역시 서구청|053-663-2477|대구광역시 서구 문화로 288|KT|사무실|public Wifi
북부정류장|35.8842282|128.5552275|대구광역시 서구청|053-663-2477|대구광역시 서구 서대구로 295|KT|쉼터공원|public Wifi
구민건강증진센터|35.880192|128.57243400000002|대구광역시 서구청|053-663-2477|대구광역시 서구 북비산로71길 7|KT|민원실|public Wifi
건강생활지원센터|35.860737|128.551439|대구광역시 서구청|053-663-2477|대구광역시 서구 서대구로7길 46|KT|민원실|public Wifi
서구청(별관)|35.871802200000005|128.55922040000002|대구광역시 서구청|053-663-2477|대구광역시 서구 국채보상로 257|KT|정보화교육장|public Wifi
이현시장|35.876944|128.5507569|대구광역시 서구청|053-663-2477|대구광역시 서구 문화로33길 24|KT|시장내|public Wifi
중리시장|35.870298|128.547822|대구광역시 서구청|053-663-2477|대구광역시 서구 국채보상로31길 12|KT|시장내|public Wifi
내당1동주민센터|35.860652|128.5607111|대구광역시 서구청|053-663-2477|대구광역시 서구 서대구로4길 35|KT|민원실|public Wifi
내당4동주민센터|35.858942|128.551748|대구광역시 서구청|053-663-2477|대구광역시 서구 서대구로3길 46|KT|민원실|public Wifi
원고개시장|35.8802844|128.5692187|대구광역시 서구청|053-663-2477|대구광역시 서구 북비산로65길 6-3|SKT|대구유통 매장|public Wifi
화원읍사무소|35.803907|128.500813|대구광역시 달성군청|053-668-2473|대구광역시 달성군 화원읍 비슬로 2594|LGU+|민원실|public wifi
논공읍사무소|35.7742545|128.42019059999998|대구광역시 달성군청|053-668-2473|대구광역시 달성군 논공읍 비슬로 1779|KT|민원실|public wifi
대구광역시립달성도서관|35.698574900000004|128.4475414|대구광역시 달성군청|053-668-2473|대구광역시 달성군 현풍읍 현풍동로19길 26|SKT|도서관|public wifi
대구달성지역자활센터|35.8006499|128.4917221|대구광역시 달성군청|053-668-2473|대구광역시 달성군 화원읍 성화로 9|LGU+|복지시설內|public wifi
대실역|35.8572963|128.4650701|대구광역시 달성군청|053-668-2473|-|LGU+|사무실|public wifi
롯데리아 대구서재|35.87364960000001|128.4971844|대구광역시 달성군청|053-668-2473|대구광역시 달성군 다사읍 서재로 113|LGU+|복지시설內|public wifi
명곡역_대구1호선_대합실|35.7982583|128.4892593|대구광역시 달성군청|053-668-2473|대구광역시 달성군 화원읍 비슬로 지하 2476|LGU+|사무실|public wifi
문양역|35.864354|128.43735900000001|대구광역시 달성군청|053-668-2473|대구광역시 달성군 다사읍 달구벌대로 431|LGU+|사무실|public wifi
비슬산자연휴양림|35.689999|128.5128999|대구광역시 달성군청|053-668-2473|대구광역시 달성군 유가읍 일연선사길 99|LGU+|사무실|public wifi
옥포읍사무소|35.78972124|128.4638964|대구광역시 달성군청|053-668-2473|대구광역시 달성군 옥포읍 비슬로 2215|LGU+|민원실|public wifi
옥포읍사무소|35.7892792|128.464235|대구광역시 달성군청|053-668-2473|대구광역시 달성군 옥포읍 비슬로 2219|LGU+|민원실|public wifi
유가읍보건지소|35.682164|128.448625|대구광역시 달성군청|053-668-2473|-|KT|민원실|public wifi
유가면사무소|35.69402219|128.4598341|대구광역시 달성군청|053-668-2473|대구광역시 달성군 유가읍 테크노상업로 95|LGU+|민원실|public wifi
유치곤장군기념관|35.70013059|128.4989673|대구광역시 달성군청|053-668-2473|대구광역시 달성군 유가읍 휴양림길 375|LGU+|기념관|public wifi
음리보건지소|35.69757655|128.4828252|대구광역시 달성군청|053-668-2473|대구광역시 달성군 유가읍 음동1길 9|LGU+|민원실|public wifi
제이미주병원|35.8571848|128.4666856|대구광역시 달성군청|053-668-2473|대구광역시 달성군 다사읍 달구벌대로 893|LGU+|병원內|public wifi
천지인독서실-명곡점|35.79899031|128.4930881|대구광역시 달성군청|053-668-2473|대구광역시 달성군 화원읍 명천로 234|KT|도서관|public wifi
하빈면보건지소|35.911986|128.447059|대구광역시 달성군청|053-668-2473|대구광역시 달성군 하빈면 하빈로109길 31-5|SKT|민원실|public wifi
하빈면사무소|35.900943|128.445515|대구광역시 달성군청|053-668-2473|대구광역시 달성군 하빈면 하빈로84길 1|LGU+|민원실|public wifi
현풍읍사무소|35.697466|128.447602|대구광역시 달성군청|053-668-2473|대구광역시 달성군 현풍읍 비슬로134길 157|LGU+|민원실|public wifi
현풍시장|35.6947378|128.4411172|대구광역시 달성군청|053-668-2473|대구광역시 달성군 현풍읍 비슬로132길 21-1|LGU+|시장內|public wifi
현풍휴게소 상행선|35.701836|128.438137|대구광역시 달성군청|053-668-2473|대구광역시 달성군 현풍읍 비슬로 675|SKT|휴게소內|public wifi
현풍휴게소 하행선|35.701809000000004|128.435341|대구광역시 달성군청|053-668-2473|대구광역시 달성군 현풍읍 성하길 48|SKT|휴게소內|public wifi
화원도서관|35.803907|128.500813|대구광역시 달성군청|053-668-2473|대구광역시 달성군 화원읍 비슬로 2594|LGU+|도서관|public wifi
화원보건지소|35.803907|128.500813|대구광역시 달성군청|053-668-2473|대구광역시 달성군 화원읍 비슬로 2594|LGU+|민원실|public wifi
화원시장|35.8011821|128.4996235|대구광역시 달성군청|053-668-2473|대구광역시 달성군 화원읍 인흥길 33-4|SKT|시장內|public wifi
화원역_대구1호선_대합실|35.803448100000004|128.5006771|대구광역시 달성군청|053-668-2473|대구광역시 달성군 화원읍 비슬로 2600|LGU+|대합실|public wifi
화원우체국|35.8043123|128.4997022|대구광역시 달성군청|053-668-2473|대구광역시 달성군 화원읍 비슬로 2589|KT|사무실|public wifi
화원읍사무소|35.803907|128.500813|대구광역시 달성군청|053-668-2473|대구광역시 달성군 화원읍 비슬로 2594|KT|민원실|public wifi
논공읍사무소|35.774267|128.4201463|대구광역시 달성군청|053-668-2473|대구광역시 달성군 논공읍 비슬로 1779|LGU+|민원실|public wifi
다사역|35.8652899|128.4569441|대구광역시 달성군청|053-668-2473|대구광역시 달성군 다사읍 매곡로12길 33|LGU+|사무실|public wifi
다사읍 서재출장소|35.8719858|128.49424040000002|대구광역시 달성군청|053-668-2473|대구광역시 달성군 다사읍 서재본길 25|LGU+|민원실|public wifi
다사읍보건지소|35.861740000000005|128.45402959999998|대구광역시 달성군청|053-668-2473|대구광역시 달성군 다사읍 매곡로7|KT|민원실|public wifi
다사읍사무소|35.861740000000005|128.45402959999998|대구광역시 달성군청|053-668-2473|대구광역시 달성군 다사읍 매곡로7|LGU+|민원실|public wifi
달성 한일우호관|35.723243100000005|128.6470828|대구광역시 달성군청|053-668-2473|대국광역시 달성군 가창면 우록길 206|LGU+|사무실|public wifi
달성군 논공면보건지소|35.774267|128.4201463|대구광역시 달성군청|053-668-2473|대구광역시 달성군 논공읍 비슬로 1779|KT|민원실|public wifi
달성군 보건소|35.6948119|128.44033090000002|대구광역시 달성군청|053-668-2473|대구광역시 달성군 현풍읍 비슬로 130길 17|KT|민원실|public wifi
달성군 종합사회복지관|35.73040753|128.45185940000002|대구광역시 달성군청|053-668-2473|대국광역시 달성군 논공읍 논공로 697-9|SKT|복지시설內|public wifi
달성군노인복지관|35.788897399999996|128.4717664|대구광역시 달성군청|053-668-2473|대구광역시 달성군 옥포읍 옥포로 13|LGU+|사무실|public wifi
달성군민체육센터|35.70169037|128.4418193|대구광역시 달성군청|053-668-2473|대구광역시 달성군 현풍읍 현풍동로 180|LGU+|체육센터內|public wifi
달성군도서관|35.7745414|128.4313244|대구광역시 달성군청|053-668-2473|대구광역시 달성군 논공읍 달성군청로 33|LGU+|도서관|public wifi
달성군장애인복지관|35.7233173|128.4545652|대구광역시 달성군청|053-668-2473|대구광역시 달성군 논공읍 논공로 242|달성군|복지시설內|public wifi
달성군종합사회복지관_논공읍|35.7303037|128.45191979999998|대구광역시 달성군청|053-668-2473|대구광역시 달성군 논공읍 논공로 697-9|LGU+|사무실|public wifi
달성군청|35.77464099|128.4314133|대구광역시 달성군청|053-668-2473|대구광역시 달성군 논공읍 달성군청로 33|SKT|민원실|public wifi
달성군청 민원실|35.7745414|128.4313244|대구광역시 달성군청|053-668-2473|대구광역시 달성군 논공읍 달성군청로 33|LGU+|민원실|public wifi
달성군청(민원실)2|35.77464099|128.4314133|대구광역시 달성군청|053-668-2473|대구광역시 달성군 논공읍 달성군청로 33|LGU+|민원실|public wifi
달성군청소년센터|35.7238941|128.4550625|대구광역시 달성군청|053-668-2473|대구광역시 달성군 논공읍 논공로 252|SKT|사무실|public wifi
달성군청소년센터 도서관|35.723886799999995|128.4551432|대구광역시 달성군청|053-668-2473|대구광역시 달성군 논공읍 논공로 252|LGU+|도서관|public wifi
달성군청소년센터 본관|35.7238941|128.4550625|대구광역시 달성군청|053-668-2473|대구광역시 달성군 논공읍 논공로 252|LGU+|사무실|public wifi
달성군청소년센터 체육관|35.7238941|128.4550625|대구광역시 달성군청|053-668-2473|대구광역시 달성군 논공읍 논공로 252|LGU+|체육센터內|public wifi
달성문화원|35.6988635|128.4519976|대구광역시 달성군청|053-668-2473|대구광역시 달성군 현풍읍 현풍동로 92|LGU+|사무실|public wifi
달성문화회관|35.865567|128.460794|대구광역시 달성군청|053-668-2473|대구광역시 달성군 다사읍 대실역북로2길 188|LGU+|복지시설內|public wifi
달성여성복지센터|35.79861079999999|128.4880551|대구광역시 달성군청|053-668-2473|대구광역시 달성군 화원읍 성천로 5|LGU+|복지시설內|public wifi
달성열린중앙병원|35.7291609|128.4465095|대구광역시 달성군청|053-668-2473|대구광역시 달성군 논공읍 논공로 743|LGU+|병원內|public wifi
달성우체국|35.6947522|128.4398593|대구광역시 달성군청|053-668-2473|대구광역시 달성군 현풍읍 비슬로130길 7|KT|사무실|public wifi
달성주민건강증진센터|35.7895501|128.47124490000002|대구광역시 달성군청|053-668-2473|대구광역시 달성군 옥포읍 비슬로 458길 6-2|LGU+|복지시설內|public wifi
달성화원 군민독서실|35.803917|128.50072690000002|대구광역시 달성군청|053-668-2473|대구광역시 달성군 화원읍 비슬로 2594|LGU+|도서관|public wifi
안심1동 행정복지센터|35.87039525|128.702108|대구광역시 동구청|053-662-2472|대구광역시 동구 율하동로 121(신기동)|KT|민원실|-
도평동 행정복지센터|35.90997677|128.6501314|대구광역시 동구청|053-662-2472|대구광역시 동구 팔공로24길 171(도동)|KT|민원실|-
공산동 행정복지센터|35.94022976|128.6442061|대구광역시 동구청|053-662-2472|대구광역시 동구 팔공로91길 9(지묘동)|KT|민원실|-
방촌현대시장|35.88276134|128.6657683|대구광역시 동구청|053-662-2472|대구광역시 동구 방촌로125(방촌동)|LGU+|전체|-
효목시장|35.88291417|128.64272169999998|대구광역시 동구청|053-662-2472|대구광역시 동구 효동로15길 13(효목동)|LGU+|전체|-
반야월종합시장|35.8724032|128.7024469|대구광역시 동구청|053-662-2472|대구광역시 동구 율하동로 143(신기동)|LGU+|전체|-
해안동 행정복지센터|35.88207943|128.6716768|대구광역시 동구청|053-662-2472|대구광역시 동구 방촌로29길 46(방촌동)|LGU+|민원실|-
신천4동 행정복지센터|35.87174589|128.6293094|대구광역시 동구청|053-662-2472|대구광역시 동구 동부로30길 61-7(신천동)|LGU+|민원실|-
평화시장|35.88115644|128.6152743|대구광역시 동구청|053-662-2472|대구광역시 동구 아양로 10|SKT|전체|-
동대구로|35.87350894|128.6248163|대구광역시 동구청|053-662-2472|대구광역시 동구 동대구로 483|KT|전체|-
동대구로|35.87110171|128.62495230000002|대구광역시 동구청|053-662-2472|대구광역시 동구 동대구로 457|KT|전체|-
동대구로|35.87231913|128.624829|대구광역시 동구청|053-662-2472|대구광역시 동구 동대구로 467|KT|전체|-
동대구로|35.87284194|128.6248221|대구광역시 동구청|053-662-2472|대구광역시 동구 동대구로 475|KT|전체|-
동대구로|35.87421194|128.62482179999998|대구광역시 동구청|053-662-2472|대구광역시 동구 동대구로 489|KT|전체|-
동대구로|35.8745271|128.62487959999999|대구광역시 동구청|053-662-2472|대구광역시 동구 동대구로 495|KT|전체|-
동대구로|35.87543625|128.6251083|대구광역시 동구청|053-662-2472|대구광역시 동구 동대구로 503|KT|전체|-
동촌유원지|35.88106468|128.6514007|대구광역시 동구청|053-662-2472|대구광역시 동구 효동로2길 27|동구청|전체|-
동촌유원지|35.88023795|128.6526011|대구광역시 동구청|053-662-2472|대구광역시 동구 효동로2길 39|동구청|전체|-
동촌유원지|35.88189536|128.6511307|대구광역시 동구청|053-662-2472|대구광역시 동구 효동로6길 80|동구청|전체|-
동촌유원지|35.88290611|128.649234|대구광역시 동구청|053-662-2472|대구광역시 동구 효동로6길 58|동구청|전체|-
동촌유원지|35.88251532|128.64982890000002|대구광역시 동구청|053-662-2472|대구광역시 동구 효동로6길 66|동구청|전체|-
터미널먹거리촌|35.87564088|128.6290635|대구광역시 동구청|053-662-2472|대구광역시 동구 동부로30길 15|동구청|전체|-
터미널먹거리촌|35.8734892|128.6285924|대구광역시 동구청|053-662-2472|대구광역시 동구 동부로30길 40|동구청|전체|-
터미널먹거리촌|35.87231498|128.6290703|대구광역시 동구청|053-662-2472|대구광역시 동구 동부로30길 53|동구청|전체|-
동대구역 광장|35.87943697|128.6287724|대구광역시 동구청|053-662-2472|대구광역시 동구 동대구로 550|KT|전체|-
혁신도시 중앙공원|35.88094718|128.73411969999998|대구광역시 동구청|053-662-2472|대구광역시 동구 동내로 117|동구청|전체|-
율하반계공원|35.86255724|128.6953288|대구광역시 동구청|053-662-2472|대구광역시 동구 율하동 1416|LGU+|전체|-
율하체육공원|35.85992179|128.6928366|대구광역시 동구청|053-662-2472|대구광역시 동구 금호강변로 278 (율하동)|KT|전체|-
봉무공원|35.93635501|128.6440416|대구광역시 동구청|053-662-2472|대구광역시 동구 팔공로 424|KT|전체|-
해오름재가노인복지센터|35.8858713|128.623806|대구광역시 동구청|053-662-2472|대구광역시 동구 큰고개로 23 (신암동)|KT|전체|-
동부도서관|35.89015506|128.6215911|대구광역시 동구청|053-662-2472|대구광역시 동구 신암북로11길 54(신암동)|KT|전체|-
볼로봉무동 행정복지센터|35.91037762|128.63928810000002|대구광역시 동구청|053-662-2472|대구광역시 동구 팔공로25길 16 (불로동)|SKT|민원실|-
지저동 행정복지센터|35.89633821|128.6387097|대구광역시 동구청|053-662-2472|대구광역시 동구 해동로3길 20 (지저동)|KT|민원실|-
동구 보건소|35.88812301|128.65121499999998|대구광역시 동구청|053-662-2472|대구광역시 동구 동촌로 79 (검사동)|KT|전체|-
안심4동 행정복지센터|35.87052409|128.7108352|대구광역시 동구청|053-662-2472|대구광역시 동구 안심로49길 98 (서호동)|KT|민원실|-
효목1동 행정복지센터|35.8816224|128.6449374|대구광역시 동구청|053-662-2472|대구광역시 동구 화랑로41길 46|SKT|민원실|-
동구노인복지회관|35.90198112|128.6300699|대구광역시 동구청|053-662-2472|대구광역시 동구 공항로31길 9-6 (불로동)|KT|전체|-
팔공노인복지회관|35.88680728|128.63607439999998|대구광역시 동구청|053-662-2472|대구광역시 동구 아양로 207 (신암동)|KT|전체|-
대구SOS어린이마을|35.88620956|128.6533591|대구광역시 동구청|053-662-2472|대구광역시 동구 해동로 219 (검사동)|KT|전체|-
동구시장|35.87446703|128.63968540000002|대구광역시 동구청|053-662-2472|대구광역시 동구 효목로 14 (효목동)|LGU+|전체|-
동서시장|35.88659293|128.63400149999998|대구광역시 동구청|053-662-2472|대구광역시 동구 아양로37길 14 (신암동)|LGU+|전체|-
신암3동 행정복지센터|35.87958352|128.62314740000002|대구광역시 동구청|053-662-2472|대구광역시 동구 신암남로 67 (신암동)|LGU+|민원실|-
불로전통시장|35.91039945|128.6419473|대구광역시 동구청|053-662-2472|대구광역시 동구 팔공로26길 9-1 (불로동)|KT|민원실|-
팔공정보문화센터|35.87510762|128.6344746|대구광역시 동구청|053-662-2472|대구광역시 동구 효신로 34(효목동)|KT|전체|-
영유아플라자|35.88490864|128.632072|대구광역시 동구청|053-662-2472|대구광역시 동구 신암남로 175-1 (신암동)|KT|전체|-
신암5동 행정복지센터|35.88976152|128.6330632|대구광역시 동구청|053-662-2472|대구광역시 동구 아양로37길 92(신암동)|KT|민원실|-
신천1·2동 행정복지센터|35.86994655|128.6147777|대구광역시 동구청|053-662-2472|대구광역시 동구 국채보상로159길 41(신천동)|KT|민원실|-
신암1동 행정복지센터|35.88429651|128.6163508|대구광역시 동구청|053-662-2472|대구광역시 동구 아양로7길 27 (신암동)|LGU+|민원실|-
신암2동 행정복지센터|35.87997985|128.61270679999998|대구광역시 동구청|053-662-2472|대구광역시 동구 신성로 56(신암동)|LGU+|민원실|-
신암4동 행정복지센터|35.88504026|128.6293262|대구광역시 동구청|053-662-2472|대구광역시 동구 신암남로23길 53(신암동)|LGU+|민원실|-
공항시장|35.89625857|128.6384321|대구광역시 동구청|053-662-2472|대구광역시 동구 해동로3길 19-5(지저동)|KT|전체|-
송라시장|35.87448648|128.6153112|대구광역시 동구청|053-662-2472|대구광역시 동구 동부로5길 10(신천동)|KT|전체|-
신천3동 행정복지센터|35.87541648|128.6237128|대구광역시 동구청|053-662-2472|대구광역시 동구 장등로90(입석동)|KT|민원실|-
효목2동 행정복지센터|35.87816313|128.6412435|대구광역시 동구청|053-662-2472|대구광역시 동구 화랑로25길 45(효목동)|KT|민원실|-
동촌동 행정복지센터|35.88993422|128.6496348|대구광역시 동구청|053-662-2472|대구광역시 동구 동촌로11길 5(입석동)|KT|민원실|-
방촌동 행정복지센터|35.88003318|128.66525819999998|대구광역시 동구청|053-662-2472|대구광역시 동구 동촌로48길 26(방촌동)|KT|민원실|-
아양아트센터|35.87965562|128.65195400000002|대구광역시 동구청|053-662-2472|대구광역시 동구 효동로2길 24 (효목동)|KT, LGU+|전체|-
신암공원관리사무소|35.89115588|128.6215214|대구광역시 동구청|053-662-2472|대구광역시 동구 신암북로11길 78-30|KT|전체|-
서구문화회관|35.8722732|128.545527|대구광역시 서구청|053-663-2477|대구광역시 서구 당산로 403|SKT|1층 사무실|public Wifi
서구청소년수련관|35.873609|128.5457716|대구광역시 서구청|053-663-2477|대구광역시 서구 문화로 122|SKT|지하 통신실|public Wifi
서구어린이도서관|35.874301|128.54636499999998|대구광역시 서구청|053-663-2477|대구광역시 서구 문화로 123|SKT|통신실|public Wifi
중리동우체국|35.858554|128.540615|대구광역시 서구청|053-663-2477|대구광역시 서구 평리로 148|KT|민원실|public Wifi
서부도서관|35.8722558|128.5576101|대구광역시 서구청|053-663-2477|대구광역시 서구 국채보상로49길 12|SKT|휴게실, 디지털자료실|public Wifi
평리3동우체국|35.871897|128.561431|대구광역시 서구청|053-663-2477|대구광역시 서구 국채보상로 279|KT|우체국|public Wifi
서구청|35.871802200000005|128.55922040000002|대구광역시 서구청|053-663-2477|대구광역시 서구 국채보상로 257|KT|민원실|public Wifi
보건복지회|35.8690202|128.555827|대구광역시 서구청|053-663-2477|대구광역시 서구 국채보상로46길 16|LGU+|사무실|public Wifi
서대구우체국|35.866817|128.555208|대구광역시 서구청|053-663-2477|대구광역시 서구 서대구로 97|KT|민원실|public Wifi
평리5동우체국|35.869621|128.54881899999998|대구광역시 서구청|053-663-2477|대구광역시 서구 국채보상로 161-1|KT|민원실|public Wifi
서구청민원실|35.871802200000005|128.55922040000002|대구광역시 서구청|053-663-2477|대구광역시 서구 국채보상로 257|SKT|민원실|public Wifi
농협두류점|35.859543|128.561404|대구광역시 서구청|053-663-2477|대구광역시 서구 달구벌대로 1797|KT|민원실|public Wifi
내당역|35.860565|128.564742|대구광역시 서구청|053-663-2477|대구광역시 서구 달구벌대로 1829|LGU+|역사|public Wifi
비산5동|35.888579|128.568389|대구광역시 서구청|053-663-2477|대구광역시 서구 팔달로 170|LGU+|민원실|public Wifi
농협원대동|35.882079|128.5780387|대구광역시 서구청|053-663-2477|대구광역시 서구 달서천로83길 6|KT|농협|public Wifi
대구의료원|35.8596025|128.54058700000002|대구광역시 서구청|053-663-2477|대구광역시 서구 평리로 157|LGU+|민원실|public Wifi
구지면보건지소|35.658770700000005|128.4135612|대구광역시 달성군청|053-668-2473|대구광역시 달성군 구지면 창리로 11길 38|KT|민원실|public wifi
구지면사무소|35.6588208|128.41347340000002|대구광역시 달성군청|053-668-2473|대구광역시 달성군 구지면 창리로 11길 38|LGU+|민원실|public wifi
논공가톨릭병원|35.721012|128.4537507|대구광역시 달성군청|053-668-2473|대구광역시 달성군 논공읍 논공로 210|LGU+|병원內|public wifi
논공읍 공단출장소|35.7299733|128.4528348|대구광역시 달성군청|053-668-2473|대구광역시 달성군 논공읍 논공중앙로33길 3|LGU+|민원실|public wifi
북부정류장|35.8842282|128.5552275|대구광역시 서구청|053-663-2477|대구광역시 서구 서대구로 295|LGU+|쉼터공원|public Wifi
범어4동 행정복지센터|35.85811287|128.6412478|한국정보화진흥원|1544-8585|대구광역시 수성구 범어로20길 97|LGU+|민원실|Public lguplus
수성4가동 행정복지센터|35.86264943|128.6166456|한국정보화진흥원|1544-8585|대구광역시 수성구 들안로67길 64|LGU+|민원실|Public lguplus
책숲길도서관|35.84484252|128.61237930000001|한국정보화진흥원|1544-8585|대구광역시 수성구 수성로 215|LGU+|열람실|Public lguplus
수성구민운동장|35.850825|128.629348|대구시청|053-803-0114|-|KT, LGU+|운동장 외부|에코 프리존
매호공원|35.84463818|128.70396350000001|대구시청|053-803-0114|대구광역시 수성구 천을로23길 5|KT, LGU+|공원 내|에코 프리존
범물공원|35.81840498|128.64335970000002|대구시청|053-803-0114|대구광역시 수성구 지범로 232|KT, LGU+|공원 내|에코 프리존
지산공원|35.82093452|128.63761409999998|대구시청|053-803-0114|대구광역시 수성구 용학로 267|KT, LGU+|공원 내|에코 프리존
신매광장|35.838905|128.706876|대구시청|053-803-0114|-|KT, LGU+|광장 내|에코 프리존
두산평생학습센터|35.83920292|128.6181617|한국정보화진흥원|080-011-6000|대구광역시 수성구 들안로16길 78|SKB|건물 내|Public WiFi Free
만촌1동 행정복지센터|35.86627549|128.6400522|한국정보화진흥원|080-011-6000|대구광역시 수성구 국채보상로 1001|SKB|건물 내|Public WiFi Free
파동도서관|35.81045653|128.61814909999998|한국정보화진흥원|080-011-6000|대구광역시 수성구 파동로3길 62|SKB|건물 내|Public WiFi Free
범어도서관|35.85937425|128.6306778|한국정보화진흥원|1588-9010|대구광역시 수성구 달구벌대로 2451|KT|건물 내|Public WiFi Free
범어1동 행정복지센터|35.85553326|128.6220491|한국정보화진흥원|1588-9010|대구광역시 수성구 범어천로 97|KT|건물 내|Public WiFi Free
수성1가동 행정복지센터|35.85512485|128.61034270000002|한국정보화진흥원|1588-9010|대구광역시 수성구 명덕로73길 7|KT|건물 내|Public WiFi Free
물망이도서관|35.85476685|128.6190093|한국정보화진흥원|1588-9010|대구광역시 수성구 명덕로 443-2|KT|건물 내|Public WiFi Free
모명재 한국전통문화체험관|35.85797768|128.6516373|한국정보화진흥원|080-011-6000|대구광역시 수성구 달구벌대로527길 13-5|SKB|건물 내|Public WiFi Free
청소년수련관|35.8446788|128.6311825|한국정보화진흥원|080-011-6000|대구광역시 수성구 청수로45길 100|SKB|체육시설|Public WiFi Free
옥포읍사무소|35.7893104|128.4638592|대구광역시 달성군청|053-668-2473|대구광역시 달성군 옥포읍 비슬로 2215|LGU+|민원실|public wifi
유가읍사무소|35.68353079999999|128.4495249|대구광역시 달성군청|053-668-2473|대구광역시 달성군 유가읍 비슬로96길 11|LGU+|민원실|public wifi
하빈보건지소|35.9017047|128.44483390000002|대구광역시 달성군청|053-668-2473|대구광역시 달성군 하빈면 하빈로 423|KT|민원실|public wifi
옥포보건지소|35.7893104|128.4638592|대구광역시 달성군청|053-668-2473|대구광역시 달성군 옥포읍 비슬로 2215|SKT|민원실|public wifi
구지보건지소|35.6588208|128.41347340000002|대구광역시 달성군청|053-668-2473|대구광역시 달성군 구지면 창리로 11길 38|SKT|민원실|public wifi
논공시장(등록)|35.774035299999994|128.4217832|대구광역시 달성군청|053-668-2473|대구광역시 달성군 논공읍 금포시장길 4|SKT|시장內|public wifi
구지시장(등록)|35.65778707|128.4127038|대구광역시 달성군청|053-668-2473|대구광역시 달성군 구지면 창리로11길 15-5|LGU+|시장內|public wifi
달성문화복지센터|35.865245|128.46070690000002|대구광역시 달성군청|053-668-2473|대구광역시 달성군 다사읍 대실역 북로2길 188|KT|사무실|public wifi
가창면보건지소|35.8025854|128.62295600000002|대구광역시 달성군청|053-668-2473|대구광역시 달성군 가창면 가창로 1100|KT|민원실|public wifi
가창면사무소|35.802712|128.6227714|대구광역시 달성군청|053-668-2473|대구광역시 달성군 가창면 가창로 1100|LGU+|민원실|public wifi
파동주민센터|35.81545357|128.6151216|한국정보화진흥원|1588-9010|대구광역시 수성구 파동로 136 (파동)|KT|민원실|Public WiFi Free
두산동주민센터|35.82937671|128.6205781|한국정보화진흥원|1588-9010|대구광역시 수성구 무학로 112 (두산동) 외|KT|민원실|Public WiFi Free
만촌시장|35.8716769|128.6462441|한국정보화진흥원|1588-9010|대구광역시 수성구 무열로29길 24(만촌동)|KT|시장 입구|Public WiFi Free
동성시장|35.8557848|128.617054|한국정보화진흥원|1588-9010|대구광역시 수성구 들안로 287(수성동2가)|KT|시장 입구|Public WiFi Free
신천시장|35.8650802|128.6183996|한국정보화진흥원|080-011-6000|대구광역시 수성구 들안로 392(범어동)|SKT|시장 입구|Public WiFi Free
수성시장|35.8556725|128.616974|한국정보화진흥원|080-011-6000|대구광역시 수성구 들안로 285-57|SKT|시장 입구|Public WiFi Free
태백시장|35.855140999999996|128.61675300000002|한국정보화진흥원|080-011-6000|대구광역시 수성구 들안로 281|SKT|시장 입구|Public WiFi Free
목련모자원|35.81786481|128.615633|한국정보화진흥원|080-011-6000|대구광역시 수성구 파동로26길 6|SKT|휴게실|Public WiFi Free
고산권보건복지센터|35.83698958|128.712875|한국정보화진흥원|1544-8585|대구광역시 수성구 욱수천로 99|LGU+|민원실|Public WiFi Free
성림노인요양원|35.84256186|128.7244336|한국정보화진흥원|080-011-6000|대구광역시 수성구 성동로 74-16|SKT|휴게실|Public WiFi Free
화랑공원|35.872189399999996|128.6390614|한국정보화진흥원|080-011-6000|대구광역시 수성구 만촌로 151|SKT|지역문화시설|Public WiFi Free
범어2동 행정복지센터|35.86230663|128.6310699|수성구청|053-666-2000|대구광역시 수성구 달구벌대로489안길 47|KT|민원실|Public WiFi Free
범어3동 행정복지센터|35.86324002|128.624167|수성구청|053-666-2000|대구광역시 수성구 상록로 42|KT|민원실|Public WiFi Free
만촌2동 행정복지센터|35.85985855|128.6472262|한국정보화진흥원|1544-8585|대구광역시 수성구 무열로 12|LGU+|민원실|Public lguplus
만촌3동 행정복지센터|35.855583|128.6505677|한국정보화진흥원|1544-8585|대구광역시 수성구 교학로2길 45|LGU+|민원실|Public lguplus
범물1동 행정복지센터|35.8177492|128.645975|한국정보화진흥원|1544-8585|대구광역시 수성구 범안로 76|LGU+|민원실|Public lguplus
범물2동 행정복지센터|35.8175027|128.6434429|한국정보화진흥원|1544-8585|대구광역시 수성구 범안로 52|LGU+|민원실|Public lguplus
중동주민센터|35.84738370000001|128.6150909|한국정보화진흥원|1588-9010|대구광역시 수성구 수성로50길 38 (중동)|KT|민원실|Public WiFi Free
대구장애인종합복지관|35.82695723|128.6069494|한국정보화진흥원|1544-8585|대구광역시 수성구 파동로51길 26-17(파동)|LGU+|휴게실|Public WiFi Free
애활원|35.82268246|128.608831|한국정보화진흥원|1544-8585|대구광역시 수성구 파동로51길 74(파동)|LGU+|휴게실|Public WiFi Free
황금시장|35.846844|128.6208847|한국정보화진흥원|1544-8585|대구광역시 수성구 희망로 201(황금동)|LGU+|시장 입구|Public WiFi Free
노인종합복지회관|35.84122389|128.629901|한국정보화진흥원|1544-8585|대구광역시 수성구 청수로35길 47(황금동)|LGU+|휴게실|Public WiFi Free
SOS아동보호센터|35.8732722|128.64645420000002|한국정보화진흥원|1588-9010|대구광역시 수성구 무열로 171(만촌동)|KT|휴게실|Public WiFi Free
수성구청 별관|35.85755319|128.62993640000002|한국정보화진흥원|1588-9010|대구광역시 수성구 달구벌대로 2450(범어동)|KT|민원실|Public WiFi Free
수성구청 본관|35.85755319|128.62993640000002|한국정보화진흥원|1588-9010|대구광역시 수성구 달구벌대로 2450(범어동)|KT|민원실|Public WiFi Free
성림아동원|35.84256186|128.7244336|한국정보화진흥원|1588-9010|대구광역시 수성구 성동로 74-16(사월동)|KT|휴게실|Public WiFi Free
인제요양원|35.86231711|128.6110639|한국정보화진흥원|1588-9010|대구광역시 수성구 신천동로84길 21(수성동4가)|KT|휴게실|Public WiFi Free
애망요양원|35.82361948|128.6082896|한국정보화진흥원|1588-9010|대구광역시 수성구 파동로51길 56(파동)|KT|휴게실|Public WiFi Free
수성구보건소|35.84463884|128.6122124|한국정보화진흥원|080-011-6000|대구광역시 수성구 수성로 213(중동)|SKT|민원실|Public WiFi Free
수성현대시장|35.849467600000004|128.60939150000002|한국정보화진흥원|1544-8585|대구광역시 수성구 신천동로 280(수성동1가)|LGU+|시장 입구|Public WiFi Free
고산1동주민센터|35.83709653|128.7123987|한국정보화진흥원|1588-9010|대구광역시 수성구 달구벌대로 3260-2(신매동)|KT|민원실|Public WiFi Free
고산3동주민센터|35.84413609|128.706578|한국정보화진흥원|1588-9010|대구광역시 수성구 고산로 152(매호동)|KT|민원실|Public WiFi Free
상동주민센터|35.8321593|128.61548349999998|한국정보화진흥원|080-011-6000|대구광역시 수성구 들안로9길 56(상동)|SKT|민원실|Public WiFi Free
고산2동주민센터|35.8434756|128.6951977|한국정보화진흥원|080-011-6000|대구광역시 수성구 달구벌대로 3091(시지동)|SKT|민원실|Public WiFi Free
지산1동주민센터|35.82491506|128.6370564|한국정보화진흥원|080-011-6000|대구광역시 수성구 지범로21길 16(지산동)|SKT|민원실|Public WiFi Free
황금1동주민센터|35.843988|128.6381642|한국정보화진흥원|080-011-6000|대구광역시 수성구 청호로57길 10(황금동)|SKT|민원실|Public WiFi Free
수성23가동주민센터|35.854781|128.619027|한국정보화진흥원|1588-9010|대구광역시 수성구 명덕로 443-2 (수성동3가)|KT|민원실|Public WiFi Free
황금2동주민센터|35.841575|128.625235|한국정보화진흥원|080-011-6000|대구광역시 수성구 청수로31길 45 (황금동)|SKT|민원실|Public WiFi Free
대구북부고용센터|35.858778|128.556709|대구광역시 서구청|053-663-2477|대구광역시 서구 서대구로 9|KT|민원실|public Wifi
달서구청 행정정보문고센터|35.82991428|128.5328409|대구광역시 달서구청|053-667-2471|대구광역시 달서구 학산로 45|SKT|전체|-
